{"type":"FeatureCollection","features":[{"type":"Feature","id":4001,"properties":{"name":"A68 Northumberland","region":"Northumberland","rating":"green","reason":"Major north-south A-road carrying commercial traffic. Default suitable for Penfold, with weather the main caveat on higher sections.","source":"https://www.openstreetmap.org/search?query=A68%20Northumberland","evidence":"road class","confidence":"high"},"geometry":{"type":"LineString","coordinates":[[-2.009,54.980],[-2.267,55.257],[-2.369,55.357]]}},{"type":"Feature","id":4002,"properties":{"name":"A697 Wooler–Morpeth","region":"Northumberland","rating":"green","reason":"Main regional A-road with normal vehicle access. Straightforward for Penfold.","source":"https://www.openstreetmap.org/search?query=A697%20Northumberland","evidence":"road class","confidence":"high"},"geometry":{"type":"LineString","coordinates":[[-1.689,55.166],[-1.815,55.420],[-2.010,55.548]]}},{"type":"Feature","id":4003,"properties":{"name":"B6318 Military Road","region":"Hadrian's Wall","rating":"yellow","reason":"Scenic undulating B-road with crests, bends and tourist traffic. Suitable for Penfold with normal care.","source":"https://www.openstreetmap.org/search?query=B6318%20Military%20Road","evidence":"road class/geometry","confidence":"medium"},"geometry":{"type":"LineString","coordinates":[[-2.578,54.989],[-2.259,55.005],[-1.995,55.016]]}},{"type":"Feature","id":4004,"properties":{"name":"B6341 Rothbury–Alnwick","region":"Northumberland","rating":"yellow","reason":"Rural B-road with bends and some narrower sections but generally comfortable for a Transporter-sized camper.","source":"https://www.openstreetmap.org/search?query=B6341%20Rothbury","evidence":"road class/geometry","confidence":"medium"},"geometry":{"type":"LineString","coordinates":[[-1.909,55.309],[-1.781,55.361],[-1.706,55.413]]}},{"type":"Feature","id":4005,"properties":{"name":"Kielder Forest Drive","region":"Northumberland","rating":"orange","reason":"Long remote forest toll/gravel route rather than a normal through-road. Surface condition, weather and isolation make it an intentional excursion for Penfold.","source":"https://www.openstreetmap.org/search?query=Kielder%20Forest%20Drive","evidence":"surface/road type","confidence":"medium"},"geometry":{"type":"LineString","coordinates":[[-2.587,55.191],[-2.492,55.234],[-2.396,55.258]]}},{"type":"Feature","id":4006,"properties":{"name":"A169 Pickering–Whitby","region":"North York Moors","rating":"green","reason":"Principal cross-moors A-road used by coaches and commercial traffic. Default suitable for Penfold.","source":"https://www.openstreetmap.org/search?query=A169%20Pickering%20Whitby","evidence":"road class","confidence":"high"},"geometry":{"type":"LineString","coordinates":[[-0.776,54.246],[-0.745,54.392],[-0.615,54.486]]}},{"type":"Feature","id":4007,"properties":{"name":"B1257 Helmsley–Stokesley","region":"North York Moors","rating":"yellow","reason":"Long scenic B-road with bends, gradients and open moorland sections. Penfold is suitable, though slower than the A-road network.","source":"https://www.openstreetmap.org/search?query=B1257%20Helmsley","evidence":"road class/geometry","confidence":"medium"},"geometry":{"type":"LineString","coordinates":[[-1.061,54.246],[-1.097,54.381],[-1.194,54.470]]}},{"type":"Feature","id":4008,"properties":{"name":"A171 Whitby–Scarborough","region":"North Yorkshire coast","rating":"green","reason":"Main coastal A-road carrying regular commercial traffic. Default green for Penfold.","source":"https://www.openstreetmap.org/search?query=A171%20Whitby%20Scarborough","evidence":"road class","confidence":"high"},"geometry":{"type":"LineString","coordinates":[[-0.615,54.486],[-0.534,54.356],[-0.405,54.282]]}},{"type":"Feature","id":4009,"properties":{"name":"B4228 Forest of Dean","region":"Forest of Dean","rating":"yellow","reason":"Main forest B-road with bends and villages but generally suitable for Penfold. Wildlife and cyclists are common.","source":"https://www.openstreetmap.org/search?query=B4228%20Forest%20of%20Dean","evidence":"road class/geometry","confidence":"medium"},"geometry":{"type":"LineString","coordinates":[[-2.608,51.865],[-2.563,51.799],[-2.516,51.751]]}},{"type":"Feature","id":4010,"properties":{"name":"B4234 Wye Valley","region":"Wye Valley","rating":"yellow","reason":"Scenic river-side road with bends and constrained village sections. Fine for Penfold with patient driving.","source":"https://www.openstreetmap.org/search?query=B4234%20Wye%20Valley","evidence":"road class/geometry","confidence":"medium"},"geometry":{"type":"LineString","coordinates":[[-2.682,51.808],[-2.656,51.739],[-2.674,51.672]]}},{"type":"Feature","id":4011,"properties":{"name":"Symonds Yat Rock approach","region":"Wye Valley","rating":"orange","reason":"Narrow wooded visitor-access roads and parking pressure make the final approach more awkward than the surrounding main roads. Penfold fits but route choice matters.","source":"https://www.openstreetmap.org/search?query=Symonds%20Yat%20Rock","evidence":"visitor access/geometry","confidence":"medium"},"geometry":{"type":"LineString","coordinates":[[-2.628,51.848],[-2.624,51.841],[-2.622,51.838]]}},{"type":"Feature","id":4012,"properties":{"name":"A40 Gloucester–Ross-on-Wye","region":"Gloucestershire/Herefordshire","rating":"green","reason":"Major dual/single carriageway strategic route. Default green for Penfold.","source":"https://www.openstreetmap.org/search?query=A40%20Gloucester%20Ross-on-Wye","evidence":"road class","confidence":"high"},"geometry":{"type":"LineString","coordinates":[[-2.242,51.865],[-2.438,51.866],[-2.584,51.914]]}},{"type":"Feature","id":4013,"properties":{"name":"B4632 Cheltenham–Broadway","region":"Cotswolds","rating":"green","reason":"Popular Cotswold through-road with normal vehicle access. Generally straightforward for Penfold.","source":"https://www.openstreetmap.org/search?query=B4632%20Broadway%20Cheltenham","evidence":"road class","confidence":"high"},"geometry":{"type":"LineString","coordinates":[[-2.078,51.900],[-1.966,51.988],[-1.855,52.036]]}},{"type":"Feature","id":4014,"properties":{"name":"Slad Valley road","region":"Cotswolds","rating":"yellow","reason":"Narrower winding Cotswold valley road with stone walls and village traffic. Manageable for Penfold but less forgiving than main A/B roads.","source":"https://www.openstreetmap.org/search?query=Slad%20Gloucestershire","evidence":"road geometry","confidence":"medium"},"geometry":{"type":"LineString","coordinates":[[-2.217,51.745],[-2.183,51.766],[-2.145,51.786]]}},{"type":"Feature","id":4015,"properties":{"name":"A429 Fosse Way Cotswolds","region":"Cotswolds","rating":"green","reason":"Major Cotswold north-south route. Default suitable for Penfold and preferable to tiny village-lane shortcuts.","source":"https://www.openstreetmap.org/search?query=A429%20Cotswolds","evidence":"road class","confidence":"high"},"geometry":{"type":"LineString","coordinates":[[-1.708,51.716],[-1.763,51.891],[-1.724,52.061]]}},{"type":"Feature","id":4016,"properties":{"name":"A3055 Military Road","region":"Isle of Wight","rating":"yellow","reason":"Scenic coastal A-road with bends, exposure and cliff-top sections. Dimensionally fine for Penfold; wind and visibility matter more.","source":"https://www.openstreetmap.org/search?query=A3055%20Military%20Road%20Isle%20of%20Wight","evidence":"road class/geometry","confidence":"medium"},"geometry":{"type":"LineString","coordinates":[[-1.543,50.660],[-1.403,50.605],[-1.289,50.592]]}},{"type":"Feature","id":4017,"properties":{"name":"B3055 Beaulieu–Brockenhurst","region":"New Forest","rating":"yellow","reason":"Forest B-road with livestock, cyclists and variable speeds. Penfold is suitable; animal hazards dominate rather than dimensions.","source":"https://www.openstreetmap.org/search?query=B3055%20New%20Forest","evidence":"road class","confidence":"medium"},"geometry":{"type":"LineString","coordinates":[[-1.576,50.820],[-1.566,50.843],[-1.573,50.821]]}},{"type":"Feature","id":4018,"properties":{"name":"B3054 Lymington–Beaulieu","region":"New Forest","rating":"yellow","reason":"Narrower forest road with livestock and village sections but normal campervan territory.","source":"https://www.openstreetmap.org/search?query=B3054%20Beaulieu","evidence":"road class/geometry","confidence":"medium"},"geometry":{"type":"LineString","coordinates":[[-1.544,50.757],[-1.516,50.790],[-1.452,50.820]]}},{"type":"Feature","id":4019,"properties":{"name":"Ditchling Beacon road","region":"South Downs","rating":"orange","reason":"Steep, narrow and popular with cyclists. Penfold can fit, but meeting traffic and gradient make this a deliberate route rather than a normal shortcut.","source":"https://www.openstreetmap.org/search?query=Ditchling%20Beacon","evidence":"road geometry","confidence":"medium"},"geometry":{"type":"LineString","coordinates":[[-0.109,50.921],[-0.106,50.901],[-0.107,50.893]]}},{"type":"Feature","id":4020,"properties":{"name":"A272 South Downs corridor","region":"South Downs","rating":"green","reason":"Main east-west regional A-road with standard vehicle access. Default suitable for Penfold.","source":"https://www.openstreetmap.org/search?query=A272%20South%20Downs","evidence":"road class","confidence":"high"},"geometry":{"type":"LineString","coordinates":[[-1.319,51.063],[-0.671,50.997],[-0.226,50.997]]}},{"type":"Feature","id":4021,"properties":{"name":"B2141 South Harting–Chichester","region":"South Downs","rating":"yellow","reason":"Rural Downs B-road with bends and village constraints but generally suitable for Penfold.","source":"https://www.openstreetmap.org/search?query=B2141%20South%20Harting","evidence":"road class/geometry","confidence":"medium"},"geometry":{"type":"LineString","coordinates":[[-0.884,50.969],[-0.842,50.900],[-0.781,50.837]]}},{"type":"Feature","id":4022,"properties":{"name":"A859 Harris–Lewis","region":"Outer Hebrides","rating":"yellow","reason":"Main island road, with a mixture of two-lane and narrower sections. Penfold is well suited; passing-place etiquette remains important.","source":"https://www.openstreetmap.org/search?query=A859%20Harris%20Lewis","evidence":"road class/geometry","confidence":"high"},"geometry":{"type":"LineString","coordinates":[[-6.802,57.898],[-6.674,58.101],[-6.385,58.210]]}},{"type":"Feature","id":4023,"properties":{"name":"B887 Huisinis road","region":"Isle of Harris","rating":"orange","reason":"Long narrow single-track dead-end road with steep and exposed sections. Penfold fits, but reversing and meeting traffic are integral to the drive.","source":"https://www.openstreetmap.org/search?query=B887%20Huisinis","evidence":"road class/geometry","confidence":"medium"},"geometry":{"type":"LineString","coordinates":[[-6.801,57.897],[-6.959,57.957],[-7.094,58.030]]}},{"type":"Feature","id":4024,"properties":{"name":"A865 Uist spine road","region":"Outer Hebrides","rating":"green","reason":"Main Uist through-route and the natural Penfold corridor between settlements and causeways.","source":"https://www.openstreetmap.org/search?query=A865%20Uist","evidence":"road class","confidence":"high"},"geometry":{"type":"LineString","coordinates":[[-7.351,57.154],[-7.333,57.390],[-7.298,57.600]]}},{"type":"Feature","id":4025,"properties":{"name":"A846 Islay","region":"Islay","rating":"yellow","reason":"Main island road with narrower sections and local traffic. Penfold is a sensible size; island-road speeds should remain modest.","source":"https://www.openstreetmap.org/search?query=A846%20Islay","evidence":"road class/geometry","confidence":"medium"},"geometry":{"type":"LineString","coordinates":[[-6.189,55.632],[-6.247,55.739],[-6.286,55.847]]}},{"type":"Feature","id":4026,"properties":{"name":"A848 Tobermory–Salen","region":"Isle of Mull","rating":"yellow","reason":"Main Mull route but narrow/single-track character persists in places. Penfold is appropriate with patient driving.","source":"https://www.openstreetmap.org/search?query=A848%20Mull","evidence":"road class/geometry","confidence":"medium"},"geometry":{"type":"LineString","coordinates":[[-6.069,56.623],[-6.017,56.540],[-5.948,56.518]]}},{"type":"Feature","id":4027,"properties":{"name":"A816 Lochgilphead–Oban","region":"Argyll","rating":"green","reason":"Main regional A-road with normal commercial traffic. Default suitable for Penfold.","source":"https://www.openstreetmap.org/search?query=A816%20Oban","evidence":"road class","confidence":"high"},"geometry":{"type":"LineString","coordinates":[[-5.433,56.038],[-5.340,56.235],[-5.471,56.412]]}},{"type":"Feature","id":4028,"properties":{"name":"A83 Rest and Be Thankful corridor","region":"Argyll","rating":"green","reason":"Strategic trunk road and normal route for large vehicles. Default green for Penfold, subject to weather, landslip controls and temporary traffic management.","source":"https://www.openstreetmap.org/search?query=A83%20Rest%20and%20Be%20Thankful","evidence":"road class","confidence":"high"},"geometry":{"type":"LineString","coordinates":[[-4.710,56.211],[-4.858,56.216],[-5.074,56.074]]}},{"type":"Feature","id":4029,"properties":{"name":"B4391 Llanfyllin–Bala","region":"Mid/North Wales","rating":"yellow","reason":"Scenic B-road with bends and narrower rural sections but generally a practical Penfold route.","source":"https://www.openstreetmap.org/search?query=B4391%20Llanfyllin%20Bala","evidence":"road class/geometry","confidence":"medium"},"geometry":{"type":"LineString","coordinates":[[-3.272,52.765],[-3.407,52.841],[-3.600,52.912]]}},{"type":"Feature","id":4030,"properties":{"name":"B4501 Denbigh Moors","region":"North Wales","rating":"yellow","reason":"Remote upland B-road with bends, exposure and occasional narrow sections. Penfold is suitable in normal weather.","source":"https://www.openstreetmap.org/search?query=B4501%20Wales","evidence":"road class/geometry","confidence":"medium"},"geometry":{"type":"LineString","coordinates":[[-3.563,53.102],[-3.508,53.184],[-3.438,53.248]]}}]}