{"type":"FeatureCollection","features":[{"type":"Feature","id":7001,"properties":{"name":"A686 Hartside Pass","region":"North Pennines","rating":"yellow","reason":"High exposed A-road with long gradients and bends. Penfold fits comfortably; weather is the main concern.","source":"https://www.openstreetmap.org/search?query=A686%20Hartside","evidence":"road class/geometry","confidence":"medium"},"geometry":{"type":"LineString","coordinates":[[-2.630,54.770],[-2.576,54.758],[-2.487,54.747]]}},{"type":"Feature","id":7002,"properties":{"name":"B6277 Alston–Middleton-in-Teesdale","region":"North Pennines","rating":"yellow","reason":"Remote moorland B-road with narrow sections and exposure; generally suitable for Penfold with normal care.","source":"https://www.openstreetmap.org/search?query=B6277%20Alston","evidence":"road class/geometry","confidence":"medium"},"geometry":{"type":"LineString","coordinates":[[-2.440,54.810],[-2.284,54.726],[-2.080,54.626]]}},{"type":"Feature","id":7003,"properties":{"name":"B6341 Rothbury–Alnwick","region":"Northumberland","rating":"yellow","reason":"Rural B-road with bends and occasional narrow sections but a practical Penfold route.","source":"https://www.openstreetmap.org/search?query=B6341%20Rothbury","evidence":"road class","confidence":"medium"},"geometry":{"type":"LineString","coordinates":[[-1.908,55.310],[-1.760,55.337],[-1.707,55.414]]}},{"type":"Feature","id":7004,"properties":{"name":"B6355 Etal–Ford–Wooler","region":"Northumberland","rating":"yellow","reason":"Quiet rural B-road; narrow in places but appropriate for a Transporter-sized camper.","source":"https://www.openstreetmap.org/search?query=B6355%20Wooler","evidence":"road class","confidence":"medium"},"geometry":{"type":"LineString","coordinates":[[-2.119,55.647],[-2.011,55.640],[-2.012,55.547]]}},{"type":"Feature","id":7005,"properties":{"name":"A68 Carter Bar","region":"Scottish Borders","rating":"green","reason":"Main cross-border trunk route used by coaches and commercial traffic. Default green for Penfold.","source":"https://www.openstreetmap.org/search?query=A68%20Carter%20Bar","evidence":"road class","confidence":"high"},"geometry":{"type":"LineString","coordinates":[[-2.489,55.354],[-2.558,55.421],[-2.670,55.542]]}},{"type":"Feature","id":7006,"properties":{"name":"A708 Moffat–Selkirk","region":"Scottish Borders","rating":"yellow","reason":"Scenic upland A-road with bends and narrower sections around St Mary's Loch; suitable for Penfold with care.","source":"https://www.openstreetmap.org/search?query=A708%20Moffat","evidence":"road class/geometry","confidence":"medium"},"geometry":{"type":"LineString","coordinates":[[-3.441,55.335],[-3.204,55.415],[-2.842,55.548]]}},{"type":"Feature","id":7007,"properties":{"name":"B709 Innerleithen–Langholm","region":"Scottish Borders","rating":"yellow","reason":"Long remote rural route with narrow stretches and limited services; manageable for Penfold but slow.","source":"https://www.openstreetmap.org/search?query=B709%20Scotland","evidence":"road class/geometry","confidence":"medium"},"geometry":{"type":"LineString","coordinates":[[-3.064,55.620],[-2.954,55.381],[-3.001,55.151]]}},{"type":"Feature","id":7008,"properties":{"name":"A701 Devil's Beef Tub","region":"Scottish Borders","rating":"green","reason":"Main Edinburgh–Moffat route with substantial traffic; exposed and winding but straightforward for Penfold.","source":"https://www.openstreetmap.org/search?query=A701%20Devils%20Beef%20Tub","evidence":"road class","confidence":"high"},"geometry":{"type":"LineString","coordinates":[[-3.441,55.335],[-3.348,55.435],[-3.285,55.548]]}},{"type":"Feature","id":7009,"properties":{"name":"A712 Queen's Way","region":"Galloway","rating":"yellow","reason":"Scenic forest A-road with bends but generally an easy campervan route.","source":"https://www.openstreetmap.org/search?query=A712%20Galloway","evidence":"road class","confidence":"medium"},"geometry":{"type":"LineString","coordinates":[[-4.145,54.939],[-4.020,55.000],[-3.856,55.071]]}},{"type":"Feature","id":7010,"properties":{"name":"Raiders Road Forest Drive","region":"Galloway","rating":"orange","reason":"Forestry drive rather than an ordinary through-road; surface, access periods and turning space should be checked before taking Penfold.","source":"https://www.openstreetmap.org/search?query=Raiders%20Road%20Forest%20Drive","evidence":"access road/geometry","confidence":"medium"},"geometry":{"type":"LineString","coordinates":[[-4.083,55.035],[-4.135,55.010],[-4.180,54.985]]}},{"type":"Feature","id":7011,"properties":{"name":"A494 Mold–Ruthin","region":"North Wales","rating":"green","reason":"Main regional A-road and sensible Penfold corridor through northeast Wales.","source":"https://www.openstreetmap.org/search?query=A494%20Ruthin","evidence":"road class","confidence":"high"},"geometry":{"type":"LineString","coordinates":[[-3.140,53.167],[-3.222,53.115],[-3.307,53.114]]}},{"type":"Feature","id":7012,"properties":{"name":"A525 Nant y Garth Pass","region":"North Wales","rating":"yellow","reason":"Bendy upland A-road between Ruthin and Llangollen; suitable for Penfold with normal mountain-road care.","source":"https://www.openstreetmap.org/search?query=A525%20Nant%20y%20Garth","evidence":"road class/geometry","confidence":"medium"},"geometry":{"type":"LineString","coordinates":[[-3.307,53.114],[-3.229,53.030],[-3.172,52.969]]}},{"type":"Feature","id":7013,"properties":{"name":"B4396 Llanrhaeadr-ym-Mochnant road","region":"Mid Wales","rating":"yellow","reason":"Rural B-road with narrow sections but generally manageable in Penfold; waterfall access lanes beyond the village can be tighter.","source":"https://www.openstreetmap.org/search?query=B4396%20Llanrhaeadr","evidence":"road class/geometry","confidence":"medium"},"geometry":{"type":"LineString","coordinates":[[-3.190,52.826],[-3.307,52.826],[-3.375,52.825]]}},{"type":"Feature","id":7014,"properties":{"name":"Pistyll Rhaeadr final approach","region":"Mid Wales","rating":"orange","reason":"Narrow dead-end access road to the waterfall with limited passing and turning; deliberate Penfold route only.","source":"https://www.openstreetmap.org/search?query=Pistyll%20Rhaeadr","evidence":"road geometry","confidence":"medium"},"geometry":{"type":"LineString","coordinates":[[-3.375,52.825],[-3.379,52.846],[-3.378,52.855]]}},{"type":"Feature","id":7015,"properties":{"name":"A479 Talgarth–Crickhowell","region":"Bannau Brycheiniog","rating":"green","reason":"Main regional route through the eastern park; straightforward for Penfold.","source":"https://www.openstreetmap.org/search?query=A479%20Wales","evidence":"road class","confidence":"high"},"geometry":{"type":"LineString","coordinates":[[-3.233,51.995],[-3.183,51.902],[-3.137,51.859]]}},{"type":"Feature","id":7016,"properties":{"name":"B4560 Llangynidr–Beaufort","region":"Bannau Brycheiniog","rating":"yellow","reason":"Scenic upland B-road, bendy and exposed but generally suitable for Penfold.","source":"https://www.openstreetmap.org/search?query=B4560%20Llangynidr","evidence":"road class/geometry","confidence":"medium"},"geometry":{"type":"LineString","coordinates":[[-3.227,51.872],[-3.271,51.815],[-3.198,51.795]]}},{"type":"Feature","id":7017,"properties":{"name":"A4136 Forest of Dean","region":"Forest of Dean","rating":"green","reason":"Main cross-forest A-road and sensible Penfold route between Monmouth and the Severn side.","source":"https://www.openstreetmap.org/search?query=A4136%20Forest%20of%20Dean","evidence":"road class","confidence":"high"},"geometry":{"type":"LineString","coordinates":[[-2.717,51.812],[-2.580,51.800],[-2.505,51.803]]}},{"type":"Feature","id":7018,"properties":{"name":"Symonds Yat East approach","region":"Wye Valley","rating":"orange","reason":"Steep and narrow local approach with constrained parking/turning; use signed visitor routes and avoid sat-nav shortcuts.","source":"https://www.openstreetmap.org/search?query=Symonds%20Yat%20East","evidence":"local road geometry","confidence":"medium"},"geometry":{"type":"LineString","coordinates":[[-2.625,51.855],[-2.640,51.848],[-2.647,51.844]]}},{"type":"Feature","id":7019,"properties":{"name":"A429 Fosse Way Cotswolds","region":"Cotswolds","rating":"green","reason":"Major north-south Cotswold route and a good Penfold backbone between smaller villages.","source":"https://www.openstreetmap.org/search?query=A429%20Cotswolds","evidence":"road class","confidence":"high"},"geometry":{"type":"LineString","coordinates":[[-1.756,51.886],[-1.702,51.763],[-1.792,51.708]]}},{"type":"Feature","id":7020,"properties":{"name":"B4425 Bibury–Burford","region":"Cotswolds","rating":"yellow","reason":"Popular rural B-road, narrow in places and busy in summer but practical for Penfold.","source":"https://www.openstreetmap.org/search?query=B4425%20Bibury","evidence":"road class/geometry","confidence":"medium"},"geometry":{"type":"LineString","coordinates":[[-1.831,51.758],[-1.730,51.806],[-1.635,51.808]]}},{"type":"Feature","id":7021,"properties":{"name":"Arlington Row/Bibury village lanes","region":"Cotswolds","rating":"orange","reason":"Historic village streets and visitor congestion make central Bibury a poor place for unnecessary campervan manoeuvring; use signed parking/through routes.","source":"https://www.openstreetmap.org/search?query=Bibury","evidence":"village geometry/visitor pressure","confidence":"medium"},"geometry":{"type":"LineString","coordinates":[[-1.833,51.759],[-1.830,51.758],[-1.825,51.757]]}},{"type":"Feature","id":7022,"properties":{"name":"A44 Broadway–Moreton-in-Marsh","region":"Cotswolds","rating":"green","reason":"Main Cotswold A-road, suitable for Penfold and preferable to tiny village lanes.","source":"https://www.openstreetmap.org/search?query=A44%20Broadway","evidence":"road class","confidence":"high"},"geometry":{"type":"LineString","coordinates":[[-1.855,52.035],[-1.762,51.994],[-1.703,51.990]]}},{"type":"Feature","id":7023,"properties":{"name":"A149 North Norfolk coast","region":"Norfolk","rating":"yellow","reason":"Main coastal route but narrow and busy through villages; Penfold fits, with seasonal congestion the main issue.","source":"https://www.openstreetmap.org/search?query=A149%20North%20Norfolk","evidence":"road class/visitor pressure","confidence":"medium"},"geometry":{"type":"LineString","coordinates":[[0.585,52.947],[0.108,52.961],[-0.690,52.936]]}},{"type":"Feature","id":7024,"properties":{"name":"Burnham Overy Staithe approach","region":"North Norfolk","rating":"orange","reason":"Narrow village/coastal access with limited turning and heavy summer parking pressure; use deliberately rather than as a through-route.","source":"https://www.openstreetmap.org/search?query=Burnham%20Overy%20Staithe","evidence":"village geometry","confidence":"medium"},"geometry":{"type":"LineString","coordinates":[[0.752,52.949],[0.746,52.957],[0.742,52.964]]}},{"type":"Feature","id":7025,"properties":{"name":"A1065 Brandon–Fakenham","region":"Norfolk","rating":"green","reason":"Main inland route across west/central Norfolk; straightforward for Penfold.","source":"https://www.openstreetmap.org/search?query=A1065%20Norfolk","evidence":"road class","confidence":"high"},"geometry":{"type":"LineString","coordinates":[[0.623,52.447],[0.708,52.659],[0.849,52.829]]}},{"type":"Feature","id":7026,"properties":{"name":"B1150 Norwich–North Walsham","region":"Norfolk","rating":"yellow","reason":"Rural B-road with village sections and bends but generally comfortable for Penfold.","source":"https://www.openstreetmap.org/search?query=B1150%20Norfolk","evidence":"road class","confidence":"medium"},"geometry":{"type":"LineString","coordinates":[[1.300,52.630],[1.365,52.754],[1.387,52.822]]}},{"type":"Feature","id":7027,"properties":{"name":"Bawdsey–Shingle Street coastal lanes","region":"Suffolk","rating":"orange","reason":"Very minor coastal lanes with narrow verges and limited passing; check exact destination before committing Penfold.","source":"https://www.openstreetmap.org/search?query=Shingle%20Street%20Suffolk","evidence":"local road geometry","confidence":"medium"},"geometry":{"type":"LineString","coordinates":[[1.408,52.011],[1.442,52.033],[1.455,52.047]]}},{"type":"Feature","id":7028,"properties":{"name":"A12 Suffolk coast backbone","region":"Suffolk","rating":"green","reason":"Strategic east-coast route; default green for Penfold and preferable to minor coastal shortcuts.","source":"https://www.openstreetmap.org/search?query=A12%20Suffolk","evidence":"road class","confidence":"high"},"geometry":{"type":"LineString","coordinates":[[1.105,52.053],[1.390,52.236],[1.558,52.466]]}},{"type":"Feature","id":7029,"properties":{"name":"B1039 Clacton–Walton coastal route","region":"Essex","rating":"yellow","reason":"Normal B-road with built-up sections and seasonal traffic; suitable for Penfold.","source":"https://www.openstreetmap.org/search?query=B1039%20Essex","evidence":"road class","confidence":"medium"},"geometry":{"type":"LineString","coordinates":[[1.154,51.789],[1.228,51.842],[1.270,51.848]]}},{"type":"Feature","id":7030,"properties":{"name":"Mersea Island B1025","region":"Essex","rating":"yellow","reason":"Main island access is suitable for Penfold, but The Strood can flood on high tides; check conditions before crossing.","source":"https://www.openstreetmap.org/search?query=B1025%20Mersea","evidence":"road class/local condition","confidence":"medium"},"geometry":{"type":"LineString","coordinates":[[0.909,51.862],[0.929,51.806],[0.905,51.777]]}}]}