{"type":"FeatureCollection","features":[{"type":"Feature","id":9001,"properties":{"name":"A686 Penrith–Alston","region":"North Pennines","rating":"yellow","reason":"Scenic high-level A-road with sustained bends, gradients and exposed sections; suitable for a Transporter-sized campervan with normal mountain-road care.","source":"https://www.openstreetmap.org/search?query=A686%20Penrith%20Alston","evidence":"road class/geometry","confidence":"medium"},"geometry":{"type":"LineString","coordinates":[[-2.752,54.665],[-2.455,54.733],[-2.439,54.812]]}},{"type":"Feature","id":9002,"properties":{"name":"B6277 Alston–Middleton-in-Teesdale","region":"North Pennines","rating":"yellow","reason":"Remote moorland B-road with bends, gradients and winter exposure; generally manageable but slower than trunk-road alternatives.","source":"https://www.openstreetmap.org/search?query=B6277%20Alston","evidence":"road class/geometry","confidence":"medium"},"geometry":{"type":"LineString","coordinates":[[-2.439,54.812],[-2.246,54.728],[-2.083,54.625]]}},{"type":"Feature","id":9003,"properties":{"name":"A689 Stanhope–Alston","region":"North Pennines","rating":"yellow","reason":"High moorland route with steep and exposed sections; suitable in good conditions but merits care in poor weather.","source":"https://www.openstreetmap.org/search?query=A689%20Stanhope%20Alston","evidence":"road class/geometry","confidence":"medium"},"geometry":{"type":"LineString","coordinates":[[-2.005,54.748],[-2.253,54.772],[-2.439,54.812]]}},{"type":"Feature","id":9004,"properties":{"name":"A169 Pickering–Whitby","region":"North York Moors","rating":"green","reason":"Main cross-moors A-road and a sensible campervan route despite gradients and bends.","source":"https://www.openstreetmap.org/search?query=A169%20Pickering%20Whitby","evidence":"road class","confidence":"high"},"geometry":{"type":"LineString","coordinates":[[-0.776,54.246],[-0.714,54.365],[-0.614,54.486]]}},{"type":"Feature","id":9005,"properties":{"name":"Rosedale Chimney Bank","region":"North York Moors","rating":"red","reason":"Exceptionally steep, narrow hill road with severe gradients and tight geometry. Avoid by default in a campervan when practical alternatives exist.","source":"https://www.openstreetmap.org/search?query=Rosedale%20Chimney%20Bank","evidence":"road geometry/gradient","confidence":"high"},"geometry":{"type":"LineString","coordinates":[[-0.884,54.349],[-0.891,54.355],[-0.896,54.361]]}},{"type":"Feature","id":9006,"properties":{"name":"A171 Whitby–Scarborough","region":"North Yorkshire Coast","rating":"green","reason":"Principal coastal A-road and the sensible through-route for campervans between Whitby and Scarborough.","source":"https://www.openstreetmap.org/search?query=A171%20Whitby%20Scarborough","evidence":"road class","confidence":"high"},"geometry":{"type":"LineString","coordinates":[[-0.614,54.486],[-0.506,54.365],[-0.405,54.282]]}},{"type":"Feature","id":9007,"properties":{"name":"B1257 Helmsley–Stokesley","region":"North York Moors","rating":"yellow","reason":"Long rural B-road with bends, villages and moorland sections; normally suitable for a Transporter-sized campervan with care.","source":"https://www.openstreetmap.org/search?query=B1257%20Helmsley%20Stokesley","evidence":"road class/geometry","confidence":"medium"},"geometry":{"type":"LineString","coordinates":[[-1.059,54.246],[-1.091,54.386],[-1.193,54.469]]}},{"type":"Feature","id":9008,"properties":{"name":"A684 Leyburn–Hawes","region":"Yorkshire Dales","rating":"green","reason":"Main Wensleydale through-route and generally straightforward for campervans, with normal village and tourist traffic caveats.","source":"https://www.openstreetmap.org/search?query=A684%20Leyburn%20Hawes","evidence":"road class","confidence":"high"},"geometry":{"type":"LineString","coordinates":[[-1.830,54.310],[-2.077,54.303],[-2.196,54.303]]}},{"type":"Feature","id":9009,"properties":{"name":"Fleet Moss road Hawes–Oughtershaw","region":"Yorkshire Dales","rating":"orange","reason":"Narrow, steep and exposed high-level road with limited passing; usable by a compact campervan but best treated as a deliberate scenic drive rather than a shortcut.","source":"https://www.openstreetmap.org/search?query=Fleet%20Moss%20Hawes","evidence":"road geometry","confidence":"medium"},"geometry":{"type":"LineString","coordinates":[[-2.196,54.303],[-2.172,54.253],[-2.199,54.220]]}},{"type":"Feature","id":9010,"properties":{"name":"A623 Chapel-en-le-Frith–Baslow","region":"Peak District","rating":"green","reason":"Established cross-Peak A-road and a sensible through-route for campervans.","source":"https://www.openstreetmap.org/search?query=A623%20Peak%20District","evidence":"road class","confidence":"high"},"geometry":{"type":"LineString","coordinates":[[-1.913,53.324],[-1.766,53.276],[-1.623,53.248]]}},{"type":"Feature","id":9011,"properties":{"name":"A515 Ashbourne–Buxton","region":"Peak District","rating":"green","reason":"Major north-south Peak District corridor and generally straightforward for campervans.","source":"https://www.openstreetmap.org/search?query=A515%20Ashbourne%20Buxton","evidence":"road class","confidence":"high"},"geometry":{"type":"LineString","coordinates":[[-1.732,53.017],[-1.778,53.177],[-1.912,53.259]]}},{"type":"Feature","id":9012,"properties":{"name":"Winnats Pass","region":"Peak District","rating":"orange","reason":"Very steep, narrow-sided pass with tight bends and tourist traffic. A compact campervan can fit, but it is a deliberate route rather than the easiest approach to Castleton.","source":"https://www.openstreetmap.org/search?query=Winnats%20Pass","evidence":"road geometry/gradient","confidence":"high"},"geometry":{"type":"LineString","coordinates":[[-1.813,53.343],[-1.804,53.337],[-1.792,53.332]]}},{"type":"Feature","id":9013,"properties":{"name":"A537 Cat and Fiddle","region":"Peak District","rating":"yellow","reason":"Wide enough for normal traffic but highly sinuous and exposed; suitable for campervans with appropriate speed and weather awareness.","source":"https://www.openstreetmap.org/search?query=A537%20Cat%20and%20Fiddle","evidence":"road class/geometry","confidence":"high"},"geometry":{"type":"LineString","coordinates":[[-2.125,53.260],[-1.998,53.238],[-1.912,53.259]]}},{"type":"Feature","id":9014,"properties":{"name":"A494 Dolgellau–Bala","region":"Eryri / North Wales","rating":"green","reason":"Principal regional A-road and a sensible campervan route between Dolgellau and Bala.","source":"https://www.openstreetmap.org/search?query=A494%20Dolgellau%20Bala","evidence":"road class","confidence":"high"},"geometry":{"type":"LineString","coordinates":[[-3.886,52.742],[-3.680,52.817],[-3.598,52.911]]}},{"type":"Feature","id":9015,"properties":{"name":"A487 Machynlleth–Dolgellau","region":"Mid/North Wales","rating":"green","reason":"Main coastal/trunk corridor and generally the preferred route for campervans over minor alternatives.","source":"https://www.openstreetmap.org/search?query=A487%20Machynlleth%20Dolgellau","evidence":"road class","confidence":"high"},"geometry":{"type":"LineString","coordinates":[[-3.850,52.590],[-3.941,52.690],[-3.886,52.742]]}},{"type":"Feature","id":9016,"properties":{"name":"A4069 Black Mountain Road","region":"Bannau Brycheiniog","rating":"yellow","reason":"Mountain A-road with sweeping bends, gradients and exposed sections; generally suitable for a Transporter-sized campervan but weather and visibility matter.","source":"https://www.openstreetmap.org/search?query=A4069%20Black%20Mountain%20Road","evidence":"road class/geometry","confidence":"high"},"geometry":{"type":"LineString","coordinates":[[-3.875,51.854],[-3.850,51.824],[-3.940,51.755]]}},{"type":"Feature","id":9017,"properties":{"name":"A470 Brecon–Merthyr Tydfil","region":"South Wales","rating":"green","reason":"Strategic north-south trunk route and a straightforward campervan corridor.","source":"https://www.openstreetmap.org/search?query=A470%20Brecon%20Merthyr","evidence":"road class","confidence":"high"},"geometry":{"type":"LineString","coordinates":[[-3.389,51.947],[-3.410,51.805],[-3.378,51.747]]}},{"type":"Feature","id":9018,"properties":{"name":"A39 Porlock–Lynmouth","region":"Exmoor","rating":"yellow","reason":"Main Exmoor coastal route but steep and bendy in places, including Porlock Hill; suitable for a compact campervan with appropriate gear and speed management.","source":"https://www.openstreetmap.org/search?query=A39%20Porlock%20Lynmouth","evidence":"road class/gradient","confidence":"high"},"geometry":{"type":"LineString","coordinates":[[-3.595,51.209],[-3.750,51.213],[-3.832,51.230]]}},{"type":"Feature","id":9019,"properties":{"name":"Porlock Toll Road","region":"Exmoor","rating":"yellow","reason":"Private scenic alternative to Porlock Hill with gradients and bends but historically used as a gentler route; check current opening and toll conditions before relying on it.","source":"https://www.openstreetmap.org/search?query=Porlock%20Toll%20Road","evidence":"road geometry","confidence":"medium"},"geometry":{"type":"LineString","coordinates":[[-3.595,51.209],[-3.621,51.217],[-3.653,51.222]]}},{"type":"Feature","id":9020,"properties":{"name":"A396 Dunster–Tiverton","region":"Exmoor / Somerset","rating":"yellow","reason":"Useful cross-Exmoor route with narrow, bendy and wooded sections; manageable for a compact campervan but slower than its A-road status may suggest.","source":"https://www.openstreetmap.org/search?query=A396%20Dunster%20Tiverton","evidence":"road class/geometry","confidence":"medium"},"geometry":{"type":"LineString","coordinates":[[-3.444,51.182],[-3.547,51.050],[-3.490,50.902]]}}]}