{"type":"FeatureCollection","features":[{"type":"Feature","id":1001,"properties":{"name":"Red Bank Road (Grasmere–Langdale)","region":"Lake District","rating":"orange","reason":"Official Lake District guidance describes this as single-track with very tight corners and unsuitable for lorries/caravans. Penfold is smaller, but it deserves an orange caution rather than being treated as an ordinary lane.","source":"https://lakedistrict.gov.uk/explore/plan-your-visit/getting-to-and-around/postcodes-for-sat-nav/","evidence":"official","confidence":"high"},"geometry":{"type":"LineString","coordinates":[[-3.026,54.452],[-3.038,54.438],[-3.046,54.426]]}},{"type":"Feature","id":1002,"properties":{"name":"Borrowdale B5289 (Keswick–Seatoller)","region":"Lake District","rating":"yellow","reason":"Narrow valley B-road with stone walls, buses, walkers and seasonal traffic. Penfold is a sensible size, but progress can be slow and meeting traffic needs care.","source":"https://lakedistrict.gov.uk/explore/plan-your-visit/getting-to-and-around/postcodes-for-sat-nav/","evidence":"official guidance + road class","confidence":"medium"},"geometry":{"type":"LineString","coordinates":[[-3.136,54.600],[-3.153,54.556],[-3.165,54.513]]}},{"type":"Feature","id":1003,"properties":{"name":"Birker Fell road","region":"Lake District","rating":"orange","reason":"Remote, narrow and steep with blind bends and little margin in places. Penfold fits, but this is an intentional scenic route rather than a relaxed shortcut.","source":"https://www.openstreetmap.org/search?query=Birker%20Fell","evidence":"road geometry/community knowledge","confidence":"medium"},"geometry":{"type":"LineString","coordinates":[[-3.250,54.367],[-3.219,54.342],[-3.193,54.316]]}},{"type":"Feature","id":1004,"properties":{"name":"Martindale access road","region":"Lake District","rating":"orange","reason":"Narrow dead-end Ullswater valley road with limited passing and turning options. Suitable only if you are happy reversing and have checked your destination.","source":"https://www.openstreetmap.org/search?query=Martindale%20Cumbria","evidence":"road geometry","confidence":"medium"},"geometry":{"type":"LineString","coordinates":[[-2.900,54.572],[-2.878,54.581],[-2.861,54.597]]}},{"type":"Feature","id":1005,"properties":{"name":"A592 Ullswater corridor","region":"Lake District","rating":"green","reason":"Main through route along Ullswater and a normal choice for campervans. Default suitable for Penfold unless temporary restrictions or severe weather apply.","source":"https://lakedistrict.gov.uk/explore/plan-your-visit/getting-to-and-around/postcodes-for-sat-nav/","evidence":"official guidance + road class","confidence":"high"},"geometry":{"type":"LineString","coordinates":[[-2.938,54.502],[-2.934,54.571],[-2.881,54.620]]}},{"type":"Feature","id":1006,"properties":{"name":"A66 Penrith–Keswick","region":"Lake District","rating":"green","reason":"Strategic trunk-road approach to the northern Lakes. Default green for Penfold; vastly preferable to minor-road shortcuts.","source":"https://www.openstreetmap.org/search?query=A66%20Keswick","evidence":"road class","confidence":"high"},"geometry":{"type":"LineString","coordinates":[[-2.752,54.664],[-2.978,54.647],[-3.135,54.601]]}},{"type":"Feature","id":1007,"properties":{"name":"Horseshoe Pass A542","region":"North Wales","rating":"yellow","reason":"Steep, exposed and bendy but a surfaced A-road. Penfold has no inherent dimensional issue; weather, motorcycles and cyclists are the bigger considerations.","source":"https://www.visitwales.com/things-do/adventure-and-activities/five-must-ride-motorbike-routes-wales","evidence":"tourism route + road class","confidence":"medium"},"geometry":{"type":"LineString","coordinates":[[-3.228,53.031],[-3.208,52.982],[-3.194,52.951]]}},{"type":"Feature","id":1008,"properties":{"name":"Nant-y-Moch reservoir road","region":"Mid Wales","rating":"orange","reason":"Remote single-track reservoir road with limited passing and exposed sections. Penfold fits physically, but reversing and poor-weather confidence matter.","source":"https://www.openstreetmap.org/search?query=Nant-y-Moch","evidence":"road geometry","confidence":"medium"},"geometry":{"type":"LineString","coordinates":[[-3.865,52.510],[-3.859,52.466],[-3.842,52.429]]}},{"type":"Feature","id":1009,"properties":{"name":"A498 Aberglaslyn Pass","region":"Eryri","rating":"yellow","reason":"Narrow-feeling mountain A-road through rock and woodland, but regularly used by buses and visitor traffic. Penfold is suitable with normal care.","source":"https://eryri.gov.wales/visit/plan-your-visit/campervans-and-motorhomes/","evidence":"National Park campervan guidance + road class","confidence":"medium"},"geometry":{"type":"LineString","coordinates":[[-4.071,53.013],[-4.102,52.989],[-4.128,52.978]]}},{"type":"Feature","id":1010,"properties":{"name":"Cwm Penmachno road","region":"Eryri","rating":"orange","reason":"Narrow upland valley road with constrained passing and local traffic. Manageable in Penfold, but not a route to take casually on a satnav suggestion.","source":"https://www.openstreetmap.org/search?query=Cwm%20Penmachno","evidence":"road geometry","confidence":"medium"},"geometry":{"type":"LineString","coordinates":[[-3.805,53.049],[-3.816,53.015],[-3.844,52.995]]}},{"type":"Feature","id":1011,"properties":{"name":"Llyn Brianne reservoir roads","region":"Mid Wales","rating":"orange","reason":"Remote reservoir roads are narrow and winding with limited passing. Penfold fits, but journey times are slow and reversing may be necessary.","source":"https://www.openstreetmap.org/search?query=Llyn%20Brianne","evidence":"road geometry","confidence":"medium"},"geometry":{"type":"LineString","coordinates":[[-3.748,52.120],[-3.706,52.080],[-3.757,52.045]]}},{"type":"Feature","id":1012,"properties":{"name":"A5 Eryri corridor","region":"North Wales","rating":"green","reason":"Historic trunk route and main cross-North-Wales corridor, routinely used by coaches and HGVs. Default green for Penfold.","source":"https://www.openstreetmap.org/search?query=A5%20Snowdonia","evidence":"road class","confidence":"high"},"geometry":{"type":"LineString","coordinates":[[-3.800,53.092],[-3.620,53.075],[-3.436,53.095]]}},{"type":"Feature","id":1013,"properties":{"name":"A87 Broadford–Portree","region":"Isle of Skye","rating":"green","reason":"Main Skye trunk road and normally straightforward for Penfold. In very high winds, Highland Council and Police Scotland have specifically warned campervans because exposed sections can be hazardous.","source":"https://www.highland.gov.uk/news/article/16765/travel_warning_-_a87_between_broadford_and_portree_and_bealach_na_ba","evidence":"official council/police warning","confidence":"high"},"geometry":{"type":"LineString","coordinates":[[-5.907,57.241],[-6.088,57.316],[-6.194,57.412]]}},{"type":"Feature","id":1014,"properties":{"name":"A832 Wester Ross alternative corridor","region":"Wester Ross","rating":"yellow","reason":"Main alternative corridor around Wester Ross. Some stretches are narrower and slower, but NC500 guidance directs larger vehicles away from Bealach na Bà onto the easier alternative network.","source":"https://www.northcoast500.com/about-nc500/faq/","evidence":"official NC500 guidance","confidence":"high"},"geometry":{"type":"LineString","coordinates":[[-5.160,57.896],[-5.505,57.728],[-5.649,57.523]]}},{"type":"Feature","id":1015,"properties":{"name":"A837 Lochinver alternative","region":"Assynt","rating":"green","reason":"NC500 guidance recommends this main-road alternative rather than the B869 Drumbeg loop for larger vehicles. Straightforward for Penfold.","source":"https://www.northcoast500.com/about-nc500/faq/","evidence":"official NC500 guidance","confidence":"high"},"geometry":{"type":"LineString","coordinates":[[-5.382,58.147],[-5.214,58.098],[-5.075,58.087]]}},{"type":"Feature","id":1016,"properties":{"name":"B8008 Morar–Arisaig coastal road","region":"West Highlands","rating":"orange","reason":"Popular narrow coastal road with significant summer visitor-management and parking controls. Highland Council highlights emergency-access concerns; drive it deliberately and do not rely on roadside parking.","source":"https://www.highland.gov.uk/news/article/15410/morar_%E2%80%93_arisaig_b8008_coastal_route_introduces_traffic_control_measures","evidence":"official council","confidence":"high"},"geometry":{"type":"LineString","coordinates":[[-5.826,56.969],[-5.858,56.917],[-5.873,56.881]]}},{"type":"Feature","id":1017,"properties":{"name":"A830 Road to the Isles","region":"West Highlands","rating":"green","reason":"Modern strategic route from Fort William to Mallaig. Default green for Penfold; use this rather than unsigned coastal-lane alternatives when you want an easy journey.","source":"https://www.openstreetmap.org/search?query=A830%20Mallaig","evidence":"road class","confidence":"high"},"geometry":{"type":"LineString","coordinates":[[-5.112,56.822],[-5.440,56.884],[-5.827,56.969]]}},{"type":"Feature","id":1018,"properties":{"name":"B884 Dunvegan–Neist Point","region":"Isle of Skye","rating":"orange","reason":"Narrow single-track road serving a very popular visitor destination. Congestion and repeated reversing are more likely than a dimensional problem for Penfold.","source":"https://www.openstreetmap.org/search?query=B884%20Neist%20Point","evidence":"road geometry/visitor pressure","confidence":"medium"},"geometry":{"type":"LineString","coordinates":[[-6.579,57.436],[-6.676,57.431],[-6.789,57.423]]}},{"type":"Feature","id":1019,"properties":{"name":"A838 Durness–Tongue","region":"North Highlands","rating":"yellow","reason":"Remote north-coast road with extensive single-track sections. Penfold is an appropriate size but passing-place etiquette and patience are essential.","source":"https://www.northcoast500.com/top-tips-hitting-route/road-safety/","evidence":"official NC500 road-safety guidance","confidence":"high"},"geometry":{"type":"LineString","coordinates":[[-4.747,58.568],[-4.472,58.535],[-4.417,58.476]]}},{"type":"Feature","id":1020,"properties":{"name":"Kintyre east-coast single-track sections","region":"Kintyre","rating":"yellow","reason":"VisitScotland specifically notes that sections of the Kintyre 66 east coast are single-track and can be challenging when towing. Penfold is smaller and should be fine with normal single-track discipline.","source":"https://www.visitscotland.com/travel-planning/touring/kintyre-66","evidence":"official tourism guidance","confidence":"high"},"geometry":{"type":"LineString","coordinates":[[-5.443,55.436],[-5.529,55.514],[-5.535,55.644]]}}]}