{"type":"FeatureCollection","features":[{"type":"Feature","properties":{"name":"Stackpole Quay approach","region":"Pembrokeshire, Wales","rating":"red","reason":"Campervans are explicitly not permitted at Stackpole Quay because of narrow access roads. Use an alternative suitable parking/access point rather than following sat-nav to the quay.","source":"https://www.nationaltrust.org.uk/visit/wales/barafundle-bay/_index_","evidence":"National Trust explicit campervan restriction","confidence":"high"},"geometry":{"type":"LineString","coordinates":[[-4.931,51.628],[-4.920,51.623],[-4.906,51.616]]}},{"type":"Feature","properties":{"name":"Broad Haven South access roads","region":"Pembrokeshire, Wales","rating":"red","reason":"National Trust states campervans are not permitted at Broad Haven South because of narrow roads. Treat the final visitor access as unsuitable for the reference campervan.","source":"https://www.nationaltrust.org.uk/visit/wales/barafundle-bay/_index_","evidence":"National Trust explicit campervan restriction","confidence":"high"},"geometry":{"type":"LineString","coordinates":[[-4.915,51.611],[-4.903,51.606],[-4.896,51.601]]}},{"type":"Feature","properties":{"name":"Bosherston visitor access roads","region":"Pembrokeshire, Wales","rating":"red","reason":"National Trust states campervans are not permitted at Bosherston visitor locations because of narrow roads. Avoid relying on sat-nav for the final approach.","source":"https://www.nationaltrust.org.uk/visit/wales/barafundle-bay/_index_","evidence":"National Trust explicit campervan restriction","confidence":"high"},"geometry":{"type":"LineString","coordinates":[[-4.956,51.618],[-4.941,51.615],[-4.927,51.614]]}},{"type":"Feature","properties":{"name":"Stackpole Court visitor access roads","region":"Pembrokeshire, Wales","rating":"red","reason":"Campervans are explicitly listed as not permitted at Stackpole Court due to narrow roads. Use the estate's suitable alternatives instead.","source":"https://www.nationaltrust.org.uk/visit/wales/barafundle-bay/_index_","evidence":"National Trust explicit campervan restriction","confidence":"high"},"geometry":{"type":"LineString","coordinates":[[-4.958,51.627],[-4.941,51.625],[-4.923,51.624]]}},{"type":"Feature","properties":{"name":"Wray Castle final approach","region":"Lake District, England","rating":"orange","reason":"National Trust describes narrow roads and specifically says the road approach is not recommended for motorhomes; campervan/minibus parking is also unavailable at the castle. A Transporter-sized camper may physically fit but this is a poor casual sat-nav destination.","source":"https://www.nationaltrust.org.uk/visit/lake-district/wray","evidence":"National Trust road and vehicle guidance","confidence":"high"},"geometry":{"type":"LineString","coordinates":[[-3.005,54.389],[-2.993,54.394],[-2.971,54.399]]}},{"type":"Feature","properties":{"name":"Upper Booth Farm campsite lane","region":"Peak District, England","rating":"orange","reason":"Long narrow lane with limited passing places. National Trust only accepts campervans up to 5.5 m and excludes motorhomes/caravans because of access. A 5.304 m LWB reference van is just within the published limit, leaving little length margin.","source":"https://www.nationaltrust.org.uk/holidays/peak-district-derbyshire/upper-booth-farm-campsite/guide","evidence":"National Trust explicit 5.5 m access limit","confidence":"high"},"geometry":{"type":"LineString","coordinates":[[-1.827,53.366],[-1.842,53.363],[-1.855,53.360]]}},{"type":"Feature","properties":{"name":"Wauchope Forest access road","region":"Scottish Borders, Scotland","rating":"yellow","reason":"Forestry and Land Scotland describes a narrow access road with passing places and says the site is not suitable for caravans or large motorhomes. A Transporter-sized camper is more suitable than a large motorhome but extra care is warranted.","source":"https://forestryandland.gov.scot/visit/destinations/wauchope/visitor-information","evidence":"Forestry and Land Scotland visitor guidance","confidence":"high"},"geometry":{"type":"LineString","coordinates":[[-2.767,55.310],[-2.746,55.296],[-2.727,55.282]]}},{"type":"Feature","properties":{"name":"Hill Top / Near Sawrey visitor approach","region":"Lake District, England","rating":"yellow","reason":"Hill Top cannot accommodate campervans or motorhomes because parking is very limited. The surrounding B5285/B5286 roads are usable, but this destination is misleading if sat-nav is used without checking vehicle parking arrangements.","source":"https://www.nationaltrust.org.uk/visit/lake-district/hill-top","evidence":"National Trust campervan parking restriction; road itself not prohibited","confidence":"high"},"geometry":{"type":"LineString","coordinates":[[-2.999,54.352],[-2.979,54.352],[-2.970,54.352]]}}]}