{"type":"FeatureCollection","features":[{"type":"Feature","properties":{"name":"Black Loch forest access","region":"Galloway, Scotland","rating":"orange","reason":"Forestry and Land Scotland describes the final forest road as a narrow track crossing a small concrete bridge and says the site is not suitable for large vehicles or caravans. This is a useful sat-nav caution despite there being no height barrier.","source":"https://forestryandland.gov.scot/visit/destinations/black-loch-galloway/visitor-information","evidence":"Forestry and Land Scotland official visitor guidance","confidence":"high"},"geometry":{"type":"LineString","coordinates":[[-4.405,55.090],[-4.395,55.085],[-4.385,55.080]]}},{"type":"Feature","properties":{"name":"Feshiebridge forest access","region":"Cairngorms, Scotland","rating":"orange","reason":"Official Forestry and Land Scotland guidance says the access road is steep and zig-zagging and the site is not suitable for large vehicles or caravans. The road may look like an ordinary short forest approach on a route planner.","source":"https://forestryandland.gov.scot/visit/stay-the-night/stay-the-night-destinations","evidence":"Forestry and Land Scotland official Stay the Night guidance","confidence":"high"},"geometry":{"type":"LineString","coordinates":[[-3.892,57.110],[-3.885,57.105],[-3.878,57.100]]}},{"type":"Feature","properties":{"name":"Pendreich forest access","region":"Stirling, Scotland","rating":"orange","reason":"Forestry and Land Scotland describes a steep single-track access road and says the site is not suitable for caravans or large motorhomes. Worth flagging because the destination itself is a legitimate motorhome stop.","source":"https://forestryandland.gov.scot/visit/stay-the-night/stay-the-night-destinations","evidence":"Forestry and Land Scotland official Stay the Night guidance","confidence":"high"},"geometry":{"type":"LineString","coordinates":[[-3.960,56.160],[-3.950,56.155],[-3.940,56.150]]}},{"type":"Feature","properties":{"name":"Lower Bohespic / Tummel Bridge access","region":"Perthshire, Scotland","rating":"orange","reason":"Official guidance notes an uneven dip where the access track leaves the public road, a small round parking area and limited turning/manoeuvring room; the site is not suitable for large vehicles or caravans.","source":"https://forestryandland.gov.scot/visit/stay-the-night/stay-the-night-destinations","evidence":"Forestry and Land Scotland official Stay the Night guidance","confidence":"high"},"geometry":{"type":"LineString","coordinates":[[-4.050,56.705],[-4.043,56.700],[-4.036,56.696]]}},{"type":"Feature","properties":{"name":"Quarry Wood forest access","region":"Moray, Scotland","rating":"yellow","reason":"Single-track road with passing places; Forestry and Land Scotland says the site is not suitable for caravans or large motorhomes. For a Transporter-sized reference camper this is caution rather than an automatic exclusion.","source":"https://forestryandland.gov.scot/visit/stay-the-night/stay-the-night-destinations","evidence":"Forestry and Land Scotland official Stay the Night guidance","confidence":"high"},"geometry":{"type":"LineString","coordinates":[[-3.310,57.620],[-3.300,57.615],[-3.290,57.610]]}},{"type":"Feature","properties":{"name":"Achnabreac forest access","region":"Argyll, Scotland","rating":"yellow","reason":"The destination is reached by roughly a mile of forest road with passing places and possible potholes. Forestry and Land Scotland says it is not suitable for large vehicles or caravans, making it useful advance information for campervan drivers.","source":"https://forestryandland.gov.scot/visit/destinations/achnabreac/activities","evidence":"Forestry and Land Scotland official visitor guidance","confidence":"high"},"geometry":{"type":"LineString","coordinates":[[-5.440,56.080],[-5.425,56.075],[-5.410,56.070]]}},{"type":"Feature","properties":{"name":"Garadhban forest access","region":"Loch Lomond and the Trossachs, Scotland","rating":"yellow","reason":"Remote forest access to a small parking area which Forestry and Land Scotland lists as unsuitable for large vehicles or caravans. A useful caution for a destination that can otherwise look routine on mapping.","source":"https://forestryandland.gov.scot/visit/stay-the-night/stay-the-night-destinations","evidence":"Forestry and Land Scotland official Stay the Night guidance","confidence":"high"},"geometry":{"type":"LineString","coordinates":[[-4.455,56.060],[-4.445,56.055],[-4.435,56.050]]}},{"type":"Feature","properties":{"name":"Drummond Hill forest access","region":"Perthshire, Scotland","rating":"yellow","reason":"Forestry and Land Scotland says the parking area is not suitable for large vehicles or caravans and advises reversing into part of the car park. This is primarily a manoeuvring/access caution rather than a through-road restriction.","source":"https://forestryandland.gov.scot/visit/stay-the-night/stay-the-night-destinations","evidence":"Forestry and Land Scotland official Stay the Night guidance","confidence":"high"},"geometry":{"type":"LineString","coordinates":[[-4.000,56.620],[-3.990,56.615],[-3.980,56.610]]}},{"type":"Feature","properties":{"name":"Jubilee Point, Loch Eck access","region":"Argyll, Scotland","rating":"yellow","reason":"The site itself can take large motorhomes, but Forestry and Land Scotland warns that entry and exit can be tight in large vehicles. This is a useful local pinch-point warning rather than a road-wide avoid rating.","source":"https://forestryandland.gov.scot/visit/stay-the-night/stay-the-night-destinations","evidence":"Forestry and Land Scotland official Stay the Night guidance","confidence":"high"},"geometry":{"type":"LineString","coordinates":[[-4.995,56.080],[-4.990,56.075],[-4.985,56.070]]}}]}