{"type":"FeatureCollection","features":[{"type":"Feature","id":1042,"properties":{"name":"A684 Hawes–Sedbergh","region":"Yorkshire Dales","rating":"yellow","reason":"Main Dales A-road but narrow and twisty in places with villages, stone walls and farm traffic. Penfold is suitable; expect slower progress than the road class suggests.","source":"https://www.openstreetmap.org/search?query=A684%20Hawes%20Sedbergh","evidence":"road class/geometry","confidence":"medium"},"geometry":{"type":"LineString","coordinates":[[-2.197,54.303],[-2.347,54.322],[-2.529,54.325]]}},{"type":"Feature","id":1043,"properties":{"name":"B6255 Ingleton–Hawes","region":"Yorkshire Dales","rating":"yellow","reason":"Scenic B-road through limestone country with bends and exposed sections. Normally a comfortable Penfold route, but livestock and tourist traffic can slow progress.","source":"https://www.openstreetmap.org/search?query=B6255%20Ingleton%20Hawes","evidence":"road class/geometry","confidence":"medium"},"geometry":{"type":"LineString","coordinates":[[-2.470,54.153],[-2.338,54.227],[-2.197,54.303]]}},{"type":"Feature","id":1044,"properties":{"name":"B6160 Wharfedale road","region":"Yorkshire Dales","rating":"yellow","reason":"Narrow Dales B-road through villages and stone-walled sections. Penfold fits, but meeting traffic and cyclists make a cautious pace sensible.","source":"https://www.openstreetmap.org/search?query=B6160%20Yorkshire%20Dales","evidence":"road class/geometry","confidence":"medium"},"geometry":{"type":"LineString","coordinates":[[-1.908,54.071],[-2.003,54.142],[-2.103,54.218]]}},{"type":"Feature","id":1045,"properties":{"name":"Coverdale road","region":"Yorkshire Dales","rating":"orange","reason":"Long narrow minor-road valley route with stone walls, blind bends and limited passing. Penfold can use it, but this should be an intentional route rather than a shortcut.","source":"https://www.openstreetmap.org/search?query=Coverdale%20Yorkshire","evidence":"road geometry","confidence":"medium"},"geometry":{"type":"LineString","coordinates":[[-1.821,54.246],[-1.943,54.246],[-2.066,54.249]]}},{"type":"Feature","id":1046,"properties":{"name":"Malham Tarn road","region":"Yorkshire Dales","rating":"orange","reason":"Narrow upland access with stone walls and tourist traffic. Penfold is physically suitable, but meeting vehicles may require reversing to passing opportunities.","source":"https://www.openstreetmap.org/search?query=Malham%20Tarn","evidence":"road geometry","confidence":"medium"},"geometry":{"type":"LineString","coordinates":[[-2.167,54.061],[-2.163,54.088],[-2.159,54.104]]}},{"type":"Feature","id":1047,"properties":{"name":"A65 Skipton–Kendal","region":"Yorkshire Dales","rating":"green","reason":"Major trunk-style route along the southern/western edge of the Dales. Default green for Penfold and the sensible alternative to minor cross-Dales lanes.","source":"https://www.yorkshiredales.org.uk/plan-your-visit/essential-information/travel-information/","evidence":"National Park travel guidance + road class","confidence":"high"},"geometry":{"type":"LineString","coordinates":[[-2.017,53.961],[-2.364,54.129],[-2.746,54.327]]}},{"type":"Feature","id":1048,"properties":{"name":"A59 Skipton–Harrogate corridor","region":"Yorkshire Dales","rating":"green","reason":"Major access route bordering the Dales, suitable for commercial traffic and straightforward for Penfold.","source":"https://www.yorkshiredales.org.uk/plan-your-visit/essential-information/travel-information/","evidence":"National Park travel guidance + road class","confidence":"high"},"geometry":{"type":"LineString","coordinates":[[-2.017,53.961],[-1.693,53.997],[-1.541,53.992]]}},{"type":"Feature","id":1049,"properties":{"name":"A623 Peak District corridor","region":"Peak District","rating":"green","reason":"Main cross-Peak A-road used by regular through traffic. Default suitable for Penfold except temporary closures or signed restrictions.","source":"https://www.openstreetmap.org/search?query=A623%20Peak%20District","evidence":"road class","confidence":"high"},"geometry":{"type":"LineString","coordinates":[[-1.683,53.282],[-1.769,53.277],[-1.877,53.284]]}},{"type":"Feature","id":1050,"properties":{"name":"A6 Bakewell–Buxton","region":"Peak District","rating":"green","reason":"Primary Peak District corridor, regularly used by buses and HGVs. Default green for Penfold.","source":"https://www.openstreetmap.org/search?query=A6%20Bakewell%20Buxton","evidence":"road class","confidence":"high"},"geometry":{"type":"LineString","coordinates":[[-1.674,53.213],[-1.789,53.236],[-1.913,53.259]]}},{"type":"Feature","id":1051,"properties":{"name":"A515 Ashbourne–Buxton","region":"Peak District","rating":"green","reason":"Main north-south A-road across the southern Peak District. Suitable for Penfold and preferable to minor-lane shortcuts.","source":"https://www.openstreetmap.org/search?query=A515%20Ashbourne%20Buxton","evidence":"road class","confidence":"high"},"geometry":{"type":"LineString","coordinates":[[-1.731,53.017],[-1.818,53.142],[-1.912,53.259]]}},{"type":"Feature","id":1052,"properties":{"name":"B6049 Monsal Head–Tideswell","region":"Peak District","rating":"yellow","reason":"Bendy rural B-road with narrow sections and tourist traffic. Penfold is suitable but take care through villages and around cyclists.","source":"https://www.openstreetmap.org/search?query=B6049%20Monsal%20Head","evidence":"road class/geometry","confidence":"medium"},"geometry":{"type":"LineString","coordinates":[[-1.726,53.240],[-1.757,53.260],[-1.775,53.278]]}},{"type":"Feature","id":1053,"properties":{"name":"Edale valley road","region":"Peak District","rating":"orange","reason":"Narrow valley access with parked cars, walkers and limited passing. Penfold fits, but busy periods make reversing and careful positioning likely.","source":"https://www.openstreetmap.org/search?query=Edale%20road","evidence":"road geometry/visitor pressure","confidence":"medium"},"geometry":{"type":"LineString","coordinates":[[-1.787,53.345],[-1.825,53.364],[-1.846,53.370]]}},{"type":"Feature","id":1054,"properties":{"name":"A57 Sheffield–Glossop","region":"Peak District","rating":"yellow","reason":"Main cross-Peak route via Snake Pass; suitable for Penfold, but steep bends, weather and closures justify yellow rather than blanket green.","source":"https://www.openstreetmap.org/search?query=A57%20Snake%20Pass","evidence":"road class/geometry","confidence":"high"},"geometry":{"type":"LineString","coordinates":[[-1.470,53.381],[-1.779,53.432],[-1.950,53.444]]}},{"type":"Feature","id":1055,"properties":{"name":"Washgate green lane","region":"Peak District","rating":"red","reason":"Peak District National Park lists Washgate under a Traffic Regulation Order prohibiting mechanically propelled vehicles. Treat as a hard no for Penfold.","source":"https://www.peakdistrict.gov.uk/looking-after/vehicles/restrictions","evidence":"official TRO","confidence":"high"},"geometry":{"type":"LineString","coordinates":[[-1.879,53.181],[-1.889,53.190],[-1.896,53.198]]}},{"type":"Feature","id":1056,"properties":{"name":"Wetton Hills green lane","region":"Peak District","rating":"red","reason":"Peak District National Park lists Wetton Hills under a permanent prohibition of mechanically propelled vehicles. Not a Penfold route.","source":"https://www.peakdistrict.gov.uk/looking-after/vehicles/restrictions","evidence":"official TRO","confidence":"high"},"geometry":{"type":"LineString","coordinates":[[-1.865,53.095],[-1.852,53.101],[-1.841,53.106]]}},{"type":"Feature","id":1057,"properties":{"name":"B3212 Moretonhampstead–Princetown","region":"Dartmoor","rating":"yellow","reason":"One of Dartmoor's main moorland roads. It is exposed and bendy but generally appropriate for campervans; livestock and weather are the main issues.","source":"https://www.dartmoor.gov.uk/enjoy-dartmoor/planning-your-visit/travel-information","evidence":"National Park motorhome guidance + road class","confidence":"high"},"geometry":{"type":"LineString","coordinates":[[-3.768,50.659],[-3.904,50.596],[-3.996,50.543]]}},{"type":"Feature","id":1058,"properties":{"name":"B3357 Two Bridges–Tavistock","region":"Dartmoor","rating":"yellow","reason":"Open moorland B-road with bends and livestock. Penfold is suitable, though Dartmoor warns that some minor roads and small bridges are unsuitable for motorhomes.","source":"https://www.dartmoor.gov.uk/enjoy-dartmoor/planning-your-visit/travel-information","evidence":"National Park motorhome guidance + road class","confidence":"high"},"geometry":{"type":"LineString","coordinates":[[-3.996,50.543],[-4.084,50.548],[-4.144,50.550]]}},{"type":"Feature","id":1059,"properties":{"name":"B3212 Yelverton–Princetown","region":"Dartmoor","rating":"yellow","reason":"Main moorland approach to Princetown. Generally suitable for Penfold, with exposed weather and livestock more significant than vehicle dimensions.","source":"https://www.dartmoor.gov.uk/enjoy-dartmoor/planning-your-visit/travel-information","evidence":"National Park motorhome guidance + road class","confidence":"high"},"geometry":{"type":"LineString","coordinates":[[-4.083,50.492],[-4.030,50.516],[-3.996,50.543]]}},{"type":"Feature","id":1060,"properties":{"name":"Hexworthy–Dartmeet minor road","region":"Dartmoor","rating":"orange","reason":"Narrow moorland road with stone walls, bridges and limited passing. Dartmoor specifically warns that some roads and small bridges are off limits to motorhomes; this is a cautious Penfold route.","source":"https://www.dartmoor.gov.uk/enjoy-dartmoor/planning-your-visit/camping-and-motorhomes","evidence":"National Park motorhome guidance + road geometry","confidence":"medium"},"geometry":{"type":"LineString","coordinates":[[-3.895,50.522],[-3.880,50.534],[-3.878,50.543]]}},{"type":"Feature","id":1061,"properties":{"name":"A386 Tavistock–Okehampton","region":"Dartmoor","rating":"green","reason":"Main western Dartmoor corridor, substantially easier than minor moorland roads and a sensible Penfold route.","source":"https://www.openstreetmap.org/search?query=A386%20Dartmoor","evidence":"road class","confidence":"high"},"geometry":{"type":"LineString","coordinates":[[-4.144,50.550],[-4.080,50.651],[-3.998,50.739]]}},{"type":"Feature","id":1062,"properties":{"name":"A39 Minehead–Lynton","region":"Exmoor","rating":"yellow","reason":"Main Exmoor coastal route with steep and twisty sections including Countisbury. Penfold is suitable, but gradients and bends merit care.","source":"https://www.openstreetmap.org/search?query=A39%20Exmoor","evidence":"road class/geometry","confidence":"high"},"geometry":{"type":"LineString","coordinates":[[-3.478,51.205],[-3.598,51.208],[-3.831,51.229]]}},{"type":"Feature","id":1063,"properties":{"name":"B3223 Simonsbath–Exford","region":"Exmoor","rating":"yellow","reason":"Narrow moorland B-road but generally manageable for Penfold. Exmoor specialises in narrow lanes, so expect livestock and limited passing.","source":"https://www.exmoor-nationalpark.gov.uk/exmoor-for-everyone/plan-your-visit/expeditions-and-groups","evidence":"National Park guidance + road class","confidence":"medium"},"geometry":{"type":"LineString","coordinates":[[-3.736,51.139],[-3.652,51.145],[-3.640,51.133]]}},{"type":"Feature","id":1064,"properties":{"name":"Malmsmead–Oareford road","region":"Exmoor","rating":"orange","reason":"Exmoor National Park specifically calls for particular care on the narrow road between Malmsmead and Oareford. Penfold fits, but farm access and tight lanes make this deliberate-route territory.","source":"https://www.exmoor-nationalpark.gov.uk/exmoor-for-everyone/plan-your-visit/expeditions-and-groups","evidence":"official National Park guidance","confidence":"high"},"geometry":{"type":"LineString","coordinates":[[-3.830,51.222],[-3.801,51.208],[-3.780,51.198]]}},{"type":"Feature","id":1065,"properties":{"name":"Porlock Vale minor lanes","region":"Exmoor","rating":"orange","reason":"Exmoor National Park business guidance notes that local narrow lanes can be unsuitable for caravans and motorhomes. Penfold is smaller, but route selection matters around the vale.","source":"https://directory.exmoor-nationalpark.gov.uk/business-listing/porlock-vale-campsite","evidence":"National Park directory guidance","confidence":"medium"},"geometry":{"type":"LineString","coordinates":[[-3.605,51.208],[-3.575,51.192],[-3.545,51.185]]}},{"type":"Feature","id":1066,"properties":{"name":"A470 Brecon–Merthyr","region":"South Wales","rating":"green","reason":"Major north-south trunk route across Bannau Brycheiniog. Straightforward for Penfold and the sensible alternative to minor mountain roads.","source":"https://www.openstreetmap.org/search?query=A470%20Brecon%20Merthyr","evidence":"road class","confidence":"high"},"geometry":{"type":"LineString","coordinates":[[-3.389,51.947],[-3.378,51.801],[-3.377,51.748]]}},{"type":"Feature","id":1067,"properties":{"name":"A40 Brecon–Abergavenny","region":"South Wales","rating":"green","reason":"Principal east-west route through the eastern Brecon Beacons area, routinely used by commercial traffic and suitable for Penfold.","source":"https://www.openstreetmap.org/search?query=A40%20Brecon%20Abergavenny","evidence":"road class","confidence":"high"},"geometry":{"type":"LineString","coordinates":[[-3.389,51.947],[-3.160,51.896],[-3.020,51.823]]}},{"type":"Feature","id":1068,"properties":{"name":"A487 Machynlleth–Aberystwyth","region":"Mid Wales","rating":"green","reason":"Primary west-Wales corridor. Bendy in places but built for through traffic and a sensible Penfold route.","source":"https://www.openstreetmap.org/search?query=A487%20Machynlleth%20Aberystwyth","evidence":"road class","confidence":"high"},"geometry":{"type":"LineString","coordinates":[[-3.850,52.590],[-4.031,52.485],[-4.083,52.416]]}},{"type":"Feature","id":1069,"properties":{"name":"A494 Dolgellau–Bala","region":"North Wales","rating":"green","reason":"Main route between Dolgellau and Bala and a much easier Penfold choice than Bwlch y Groes or tiny mountain alternatives.","source":"https://www.openstreetmap.org/search?query=A494%20Dolgellau%20Bala","evidence":"road class","confidence":"high"},"geometry":{"type":"LineString","coordinates":[[-3.886,52.742],[-3.672,52.825],[-3.600,52.912]]}},{"type":"Feature","id":1070,"properties":{"name":"B4407 Ffestiniog–Ysbyty Ifan","region":"Eryri","rating":"yellow","reason":"Rural cross-country B-road with narrow sections. Penfold is suitable but expect bends, livestock and occasional constrained passing.","source":"https://www.openstreetmap.org/search?query=B4407%20Wales","evidence":"road class/geometry","confidence":"medium"},"geometry":{"type":"LineString","coordinates":[[-3.930,52.959],[-3.787,53.018],[-3.731,53.028]]}},{"type":"Feature","id":1071,"properties":{"name":"A82 Loch Ness corridor","region":"Highlands","rating":"green","reason":"Major trunk route along Loch Ness, routinely used by coaches and HGVs. Default green for Penfold despite bends and tourist traffic.","source":"https://www.openstreetmap.org/search?query=A82%20Loch%20Ness","evidence":"road class","confidence":"high"},"geometry":{"type":"LineString","coordinates":[[-4.224,57.478],[-4.451,57.335],[-4.683,57.144]]}},{"type":"Feature","id":1072,"properties":{"name":"A887 Invermoriston–A87","region":"Highlands","rating":"green","reason":"Strategic link from the A82 toward Skye, suitable for normal commercial traffic and straightforward for Penfold.","source":"https://www.openstreetmap.org/search?query=A887%20Scotland","evidence":"road class","confidence":"high"},"geometry":{"type":"LineString","coordinates":[[-4.617,57.216],[-4.877,57.139],[-5.091,57.120]]}},{"type":"Feature","id":1073,"properties":{"name":"A890 Strathcarron corridor","region":"Wester Ross","rating":"yellow","reason":"Main west-coast link with some narrower Highland sections. Penfold is appropriate; weather and passing-place behaviour matter more than dimensions.","source":"https://www.openstreetmap.org/search?query=A890%20Strathcarron","evidence":"road class/geometry","confidence":"medium"},"geometry":{"type":"LineString","coordinates":[[-5.332,57.481],[-5.088,57.478],[-4.815,57.474]]}},{"type":"Feature","id":1074,"properties":{"name":"A835 Ullapool–Ledmore","region":"Northwest Highlands","rating":"green","reason":"Main strategic road north from Ullapool and the sensible Penfold route before choosing any smaller Assynt deviations.","source":"https://www.northcoast500.com/top-tips-hitting-route/motorhomes-and-campervan-advice/","evidence":"official NC500 context + road class","confidence":"high"},"geometry":{"type":"LineString","coordinates":[[-5.160,57.896],[-5.053,58.010],[-4.986,58.123]]}},{"type":"Feature","id":1075,"properties":{"name":"A838 Lairg–Durness","region":"Northwest Highlands","rating":"yellow","reason":"Long remote route with extensive single-track sections. Penfold is an appropriate size, but NC500 guidance stresses reversing ability and passing-place discipline.","source":"https://www.northcoast500.com/top-tips-hitting-route/motorhomes-and-campervan-advice/","evidence":"official NC500 guidance","confidence":"high"},"geometry":{"type":"LineString","coordinates":[[-4.402,58.023],[-4.686,58.302],[-4.747,58.568]]}}]}