{"type":"FeatureCollection","features":[{"type":"Feature","properties":{"name":"Hardknott Pass eastern approach","region":"Lake District","rating":"red","reason":"Very steep, narrow mountain-pass approach with hairpins. Penfold can physically fit much of it, but the combination of gradient, bends and meeting traffic makes it an avoid-by-default route.","source":"https://www.openstreetmap.org/search?query=Hardknott%20Pass","evidence":"mapped road + established mountain-pass characteristics","confidence":"high"},"geometry":{"type":"LineString","coordinates":[[-3.196,54.402],[-3.176,54.407],[-3.153,54.402]]}},{"type":"Feature","properties":{"name":"Wrynose Pass eastern approach","region":"Lake District","rating":"orange","reason":"Single-track mountain road with steep gradients and tight bends; suitable only as a deliberate scenic route in Penfold.","source":"https://www.openstreetmap.org/search?query=Wrynose%20Pass","evidence":"mapped road + established mountain-pass characteristics","confidence":"high"},"geometry":{"type":"LineString","coordinates":[[-3.116,54.410],[-3.087,54.414],[-3.050,54.421]]}},{"type":"Feature","properties":{"name":"Red Bank Road Grasmere–Langdale","region":"Lake District","rating":"orange","reason":"Single-track road with very tight corners; National Park guidance warns it is unsuitable for caravans and lorries. Penfold is smaller, but it remains a deliberate-route road.","source":"https://www.lakedistrict.gov.uk/","evidence":"official National Park road guidance","confidence":"high"},"geometry":{"type":"LineString","coordinates":[[-3.025,54.459],[-3.042,54.448],[-3.056,54.438]]}},{"type":"Feature","properties":{"name":"Honister Pass","region":"Lake District","rating":"orange","reason":"Steep, narrow and twisty pass. Penfold-sized vans can use it, but gradients and encounters with oncoming traffic require care.","source":"https://www.openstreetmap.org/search?query=Honister%20Pass","evidence":"mapped road + established pass characteristics","confidence":"high"},"geometry":{"type":"LineString","coordinates":[[-3.200,54.520],[-3.170,54.514],[-3.145,54.510]]}},{"type":"Feature","properties":{"name":"Newlands Pass","region":"Lake District","rating":"orange","reason":"Narrow mountain road with steep sections and limited passing. Better treated as an intentional scenic route than a sat-nav shortcut.","source":"https://www.openstreetmap.org/search?query=Newlands%20Pass","evidence":"mapped road + established pass characteristics","confidence":"high"},"geometry":{"type":"LineString","coordinates":[[-3.211,54.584],[-3.190,54.566],[-3.173,54.549]]}},{"type":"Feature","properties":{"name":"Whinlatter Pass B5292","region":"Lake District","rating":"yellow","reason":"Proper through-road but steep and bendy. Generally suitable for Penfold with normal mountain-road care.","source":"https://www.openstreetmap.org/search?query=B5292%20Whinlatter","evidence":"mapped B-road","confidence":"medium-high"},"geometry":{"type":"LineString","coordinates":[[-3.231,54.617],[-3.204,54.607],[-3.168,54.600]]}},{"type":"Feature","properties":{"name":"A592 Kirkstone Pass","region":"Lake District","rating":"yellow","reason":"Main mountain A-road and normally suitable for Penfold, but steep gradients, bends and winter conditions justify care.","source":"https://www.openstreetmap.org/search?query=A592%20Kirkstone%20Pass","evidence":"mapped A-road","confidence":"high"},"geometry":{"type":"LineString","coordinates":[[-2.927,54.463],[-2.918,54.477],[-2.910,54.495]]}},{"type":"Feature","properties":{"name":"A591 Ambleside–Keswick","region":"Lake District","rating":"green","reason":"Principal Lake District route, routinely used by coaches and larger vehicles. Preferred Penfold corridor over minor-road alternatives.","source":"https://www.openstreetmap.org/search?query=A591%20Lake%20District","evidence":"strategic A-road","confidence":"high"},"geometry":{"type":"LineString","coordinates":[[-2.963,54.432],[-3.017,54.462],[-3.055,54.548],[-3.135,54.601]]}},{"type":"Feature","properties":{"name":"Bwlch y Groes","region":"North Wales","rating":"orange","reason":"High, steep and narrow mountain crossing with tight bends. Penfold can fit, but this should be chosen deliberately rather than used as a routine through-route.","source":"https://www.openstreetmap.org/search?query=Bwlch%20y%20Groes","evidence":"mapped mountain road","confidence":"high"},"geometry":{"type":"LineString","coordinates":[[-3.598,52.768],[-3.612,52.755],[-3.606,52.735]]}},{"type":"Feature","properties":{"name":"Gospel Pass","region":"Black Mountains","rating":"orange","reason":"Very narrow high-level road with constrained passing and seasonal visitor pressure. Penfold-sized, but reversing and meeting traffic can be difficult.","source":"https://www.openstreetmap.org/search?query=Gospel%20Pass","evidence":"mapped mountain road","confidence":"high"},"geometry":{"type":"LineString","coordinates":[[-3.051,52.006],[-3.068,52.025],[-3.078,52.044]]}},{"type":"Feature","properties":{"name":"A4069 Black Mountain Pass","region":"Bannau Brycheiniog","rating":"yellow","reason":"Twisty mountain A-road with exposed sections but no inherent Penfold dimensional problem. Suitable with sensible speed and weather awareness.","source":"https://www.openstreetmap.org/search?query=A4069%20Black%20Mountain%20Pass","evidence":"mapped A-road","confidence":"high"},"geometry":{"type":"LineString","coordinates":[[-3.850,51.847],[-3.829,51.881],[-3.809,51.914]]}},{"type":"Feature","properties":{"name":"A4086 Llanberis Pass","region":"Eryri","rating":"yellow","reason":"Penfold fits, but rock faces, buses, parking pressure and tourist traffic can create tight encounters.","source":"https://www.openstreetmap.org/search?query=A4086%20Llanberis%20Pass","evidence":"mapped A-road + visitor pressure","confidence":"high"},"geometry":{"type":"LineString","coordinates":[[-4.126,53.117],[-4.077,53.101],[-4.019,53.081]]}},{"type":"Feature","properties":{"name":"A5 Betws-y-Coed–Llangollen corridor","region":"North Wales","rating":"green","reason":"Major strategic route and the sensible Penfold alternative to many narrow mountain crossings.","source":"https://www.openstreetmap.org/search?query=A5%20North%20Wales","evidence":"strategic A-road","confidence":"high"},"geometry":{"type":"LineString","coordinates":[[-3.806,53.092],[-3.560,52.979],[-3.170,52.970],[-3.052,52.969]]}},{"type":"Feature","properties":{"name":"A487 Pembrokeshire trunk corridor","region":"Pembrokeshire","rating":"green","reason":"Main coastal trunk route and generally the best Penfold through-route compared with minor coastal lanes.","source":"https://www.openstreetmap.org/search?query=A487%20Pembrokeshire","evidence":"strategic A-road","confidence":"high"},"geometry":{"type":"LineString","coordinates":[[-4.970,51.802],[-5.126,51.855],[-5.196,51.874],[-5.264,51.882]]}},{"type":"Feature","properties":{"name":"Bealach na Bà","region":"Wester Ross","rating":"orange","reason":"Famous single-track alpine-style pass with hairpins and steep gradients. Penfold is around the scale of campervan that can use it, but it is not a casual route and conditions/traffic matter.","source":"https://www.openstreetmap.org/search?query=Bealach%20na%20Ba","evidence":"mapped road + NC500 vehicle guidance","confidence":"high"},"geometry":{"type":"LineString","coordinates":[[-5.649,57.412],[-5.697,57.419],[-5.758,57.432]]}},{"type":"Feature","properties":{"name":"B869 Drumbeg coastal road","region":"Assynt","rating":"orange","reason":"Narrow, twisting single-track coastal road. Larger motorhomes are commonly directed to alternatives; Penfold is smaller but still needs deliberate passing-place driving.","source":"https://www.openstreetmap.org/search?query=B869%20Drumbeg","evidence":"mapped road + NC500 vehicle guidance","confidence":"high"},"geometry":{"type":"LineString","coordinates":[[-5.075,58.087],[-5.133,58.155],[-5.175,58.205],[-5.055,58.244]]}},{"type":"Feature","properties":{"name":"A894 Kylesku–Scourie","region":"Northwest Highlands","rating":"green","reason":"Main-road alternative to the tighter Drumbeg coastal route and a straightforward Penfold corridor.","source":"https://www.openstreetmap.org/search?query=A894%20Scourie","evidence":"strategic A-road","confidence":"high"},"geometry":{"type":"LineString","coordinates":[[-5.016,58.258],[-5.083,58.304],[-5.158,58.351]]}},{"type":"Feature","properties":{"name":"A838 Durness–Tongue","region":"North Highlands","rating":"yellow","reason":"Remote Highland route with significant single-track sections. Penfold is a suitable scale, but passing-place etiquette and weather matter.","source":"https://www.openstreetmap.org/search?query=A838%20Durness%20Tongue","evidence":"mapped Highland A-road","confidence":"high"},"geometry":{"type":"LineString","coordinates":[[-4.747,58.568],[-4.430,58.577],[-4.020,58.593]]}},{"type":"Feature","properties":{"name":"A832 Gairloch coastal corridor","region":"Wester Ross","rating":"yellow","reason":"Scenic Highland A-road with narrower/single-track stretches. Generally a good Penfold road, but slower than a normal A-road.","source":"https://www.openstreetmap.org/search?query=A832%20Gairloch","evidence":"mapped Highland A-road","confidence":"high"},"geometry":{"type":"LineString","coordinates":[[-5.689,57.728],[-5.565,57.715],[-5.448,57.684]]}},{"type":"Feature","properties":{"name":"A87 Skye trunk road","region":"Isle of Skye","rating":"green","reason":"Primary Skye road used by coaches and commercial traffic; default green for Penfold.","source":"https://www.openstreetmap.org/search?query=A87%20Skye","evidence":"strategic A-road","confidence":"high"},"geometry":{"type":"LineString","coordinates":[[-5.732,57.280],[-6.101,57.287],[-6.243,57.414]]}},{"type":"Feature","properties":{"name":"Quiraing road","region":"Isle of Skye","rating":"orange","reason":"Narrow single-track scenic road with steep sections and heavy visitor traffic. Penfold fits, but congestion and reversing make it a deliberate route.","source":"https://www.openstreetmap.org/search?query=Quiraing%20road","evidence":"mapped single-track road + visitor pressure","confidence":"high"},"geometry":{"type":"LineString","coordinates":[[-6.194,57.643],[-6.254,57.629],[-6.308,57.615]]}},{"type":"Feature","properties":{"name":"Neist Point road","region":"Isle of Skye","rating":"orange","reason":"Long single-track dead-end road with tourist traffic and limited passing. Suitable for Penfold but potentially slow and awkward at busy times.","source":"https://www.openstreetmap.org/search?query=Neist%20Point","evidence":"mapped single-track road + visitor pressure","confidence":"high"},"geometry":{"type":"LineString","coordinates":[[-6.433,57.447],[-6.575,57.432],[-6.638,57.423]]}},{"type":"Feature","properties":{"name":"A82 Fort William–Inverness","region":"Highlands","rating":"green","reason":"Major trunk route used by coaches and HGVs. Default green for Penfold unless temporary closures or weather intervene.","source":"https://www.openstreetmap.org/search?query=A82%20Fort%20William%20Inverness","evidence":"strategic trunk road","confidence":"high"},"geometry":{"type":"LineString","coordinates":[[-5.105,56.819],[-4.827,57.144],[-4.474,57.322],[-4.224,57.478]]}},{"type":"Feature","properties":{"name":"A9 Perth–Inverness","region":"Scotland","rating":"green","reason":"Major strategic trunk road; straightforward Penfold route subject to normal incidents/weather.","source":"https://www.openstreetmap.org/search?query=A9%20Perth%20Inverness","evidence":"strategic trunk road","confidence":"high"},"geometry":{"type":"LineString","coordinates":[[-3.433,56.396],[-3.733,56.705],[-3.829,57.154],[-4.224,57.478]]}},{"type":"Feature","properties":{"name":"Winnats Pass","region":"Peak District","rating":"orange","reason":"Steep, narrow limestone gorge road with tight bends and tourist traffic. Penfold can use it, but it is not a low-stress through-route.","source":"https://www.openstreetmap.org/search?query=Winnats%20Pass","evidence":"mapped pass road","confidence":"high"},"geometry":{"type":"LineString","coordinates":[[-1.810,53.344],[-1.825,53.342],[-1.840,53.340]]}},{"type":"Feature","properties":{"name":"Snake Pass A57","region":"Peak District","rating":"yellow","reason":"Bendy and exposed but a normal A-road. Penfold suitability is good; closures and weather are the bigger risks.","source":"https://www.openstreetmap.org/search?query=A57%20Snake%20Pass","evidence":"mapped A-road","confidence":"high"},"geometry":{"type":"LineString","coordinates":[[-1.779,53.432],[-1.866,53.431],[-1.959,53.438]]}},{"type":"Feature","properties":{"name":"A628 Woodhead Pass","region":"Peak District","rating":"green","reason":"Strategic trans-Pennine route carrying substantial commercial traffic; default green for Penfold.","source":"https://www.openstreetmap.org/search?query=A628%20Woodhead","evidence":"strategic A-road","confidence":"high"},"geometry":{"type":"LineString","coordinates":[[-1.819,53.495],[-1.930,53.493],[-2.030,53.484]]}},{"type":"Feature","properties":{"name":"Buttertubs Pass","region":"Yorkshire Dales","rating":"orange","reason":"Narrow exposed moorland road with steep sections and limited passing. Penfold can use it, but it deserves deliberate-route status.","source":"https://www.openstreetmap.org/search?query=Buttertubs%20Pass","evidence":"mapped pass road","confidence":"high"},"geometry":{"type":"LineString","coordinates":[[-2.209,54.305],[-2.196,54.326],[-2.188,54.348]]}},{"type":"Feature","properties":{"name":"Fleet Moss road","region":"Yorkshire Dales","rating":"orange","reason":"High, narrow and exposed single-track route with steep approaches. Meeting traffic and weather are the main Penfold concerns.","source":"https://www.openstreetmap.org/search?query=Fleet%20Moss","evidence":"mapped single-track road","confidence":"high"},"geometry":{"type":"LineString","coordinates":[[-2.151,54.196],[-2.174,54.228],[-2.196,54.257]]}},{"type":"Feature","properties":{"name":"A684 Wensleydale","region":"Yorkshire Dales","rating":"green","reason":"Main east-west Dales route and a sensible Penfold corridor compared with minor pass roads.","source":"https://www.openstreetmap.org/search?query=A684%20Wensleydale","evidence":"main A-road","confidence":"high"},"geometry":{"type":"LineString","coordinates":[[-2.201,54.306],[-1.998,54.303],[-1.700,54.309]]}},{"type":"Feature","properties":{"name":"A65 Skipton–Kendal","region":"Yorkshire Dales","rating":"green","reason":"Major access route around the Dales and straightforward for Penfold.","source":"https://www.openstreetmap.org/search?query=A65%20Yorkshire%20Dales","evidence":"strategic A-road","confidence":"high"},"geometry":{"type":"LineString","coordinates":[[-1.990,53.962],[-2.330,54.115],[-2.745,54.326]]}},{"type":"Feature","properties":{"name":"B3212 Dartmoor","region":"Dartmoor","rating":"yellow","reason":"Main moorland B-road, generally suitable for Penfold but with livestock, bends and tourist traffic. Prefer it over tiny sat-nav shortcuts.","source":"https://www.dartmoor.gov.uk/enjoy-dartmoor/planning-your-visit/camping-and-motorhomes","evidence":"official Dartmoor motorhome guidance + mapped B-road","confidence":"high"},"geometry":{"type":"LineString","coordinates":[[-3.904,50.596],[-3.878,50.543],[-3.833,50.519]]}},{"type":"Feature","properties":{"name":"Widecombe minor lanes","region":"Dartmoor","rating":"orange","reason":"Dartmoor guidance warns that some local roads are too narrow for motorhomes. Minor lanes around Widecombe should be treated cautiously rather than as routine shortcuts.","source":"https://www.dartmoor.gov.uk/enjoy-dartmoor/planning-your-visit/camping-and-motorhomes","evidence":"official Dartmoor motorhome guidance","confidence":"medium-high"},"geometry":{"type":"LineString","coordinates":[[-3.812,50.576],[-3.798,50.590],[-3.780,50.602]]}},{"type":"Feature","properties":{"name":"Porlock Hill A39","region":"Exmoor","rating":"yellow","reason":"Exceptionally steep main road but wide enough for normal vehicles. Penfold should use appropriate gears and engine braking; dimensional suitability itself is good.","source":"https://www.openstreetmap.org/search?query=Porlock%20Hill%20A39","evidence":"mapped A-road + gradient characteristics","confidence":"high"},"geometry":{"type":"LineString","coordinates":[[-3.595,51.208],[-3.573,51.202],[-3.550,51.194]]}},{"type":"Feature","properties":{"name":"Lynton–Valley of Rocks road","region":"Exmoor","rating":"orange","reason":"Narrow scenic local road with constrained sections and visitor traffic. Check the exact approach rather than following a sat-nav blindly.","source":"https://www.openstreetmap.org/search?query=Valley%20of%20Rocks","evidence":"mapped local road","confidence":"medium-high"},"geometry":{"type":"LineString","coordinates":[[-3.832,51.229],[-3.874,51.229],[-3.899,51.227]]}},{"type":"Feature","properties":{"name":"B3306 St Ives–St Just","region":"West Cornwall","rating":"yellow","reason":"Spectacular but narrow and bendy coastal B-road. Penfold is an appropriate size; summer meeting traffic is the main difficulty.","source":"https://www.openstreetmap.org/search?query=B3306%20Cornwall","evidence":"mapped B-road + campervan experience","confidence":"high"},"geometry":{"type":"LineString","coordinates":[[-5.490,50.210],[-5.674,50.166],[-5.692,50.124]]}},{"type":"Feature","properties":{"name":"Mousehole village approach","region":"West Cornwall","rating":"orange","reason":"Tight granite-walled approach and constrained village streets. Use signed visitor access and parking rather than centre-bound sat-nav routes.","source":"https://www.openstreetmap.org/search?query=Mousehole%20Cornwall","evidence":"mapped village roads + campervan guidance","confidence":"high"},"geometry":{"type":"LineString","coordinates":[[-5.548,50.103],[-5.538,50.093],[-5.539,50.083]]}},{"type":"Feature","properties":{"name":"Port Isaac village approach","region":"North Cornwall","rating":"orange","reason":"Very tight historic-village roads. Use designated visitor parking and avoid driving toward the old centre.","source":"https://www.openstreetmap.org/search?query=Port%20Isaac","evidence":"mapped village roads + campervan guidance","confidence":"high"},"geometry":{"type":"LineString","coordinates":[[-4.827,50.595],[-4.833,50.591],[-4.830,50.592]]}},{"type":"Feature","properties":{"name":"A30 Cornwall","region":"Cornwall","rating":"green","reason":"Primary strategic route through Cornwall and strongly preferable to hedge-bound sat-nav shortcuts.","source":"https://www.openstreetmap.org/search?query=A30%20Cornwall","evidence":"strategic trunk road","confidence":"high"},"geometry":{"type":"LineString","coordinates":[[-4.787,50.398],[-5.060,50.330],[-5.384,50.170]]}}]}