{"type":"FeatureCollection","features":[{"type":"Feature","id":8001,"properties":{"name":"A44 Worcester–Evesham","region":"Worcestershire","rating":"green","reason":"Main regional A-road and an easy Penfold corridor through the Vale of Evesham.","source":"https://www.openstreetmap.org/search?query=A44%20Worcester%20Evesham","evidence":"road class","confidence":"high"},"geometry":{"type":"LineString","coordinates":[[-2.220,52.192],[-1.970,52.107],[-1.943,52.092]]}},{"type":"Feature","id":8002,"properties":{"name":"B4084 Pershore–Evesham","region":"Worcestershire","rating":"yellow","reason":"Normal rural B-road with village sections and bends; suitable for Penfold with ordinary care.","source":"https://www.openstreetmap.org/search?query=B4084%20Pershore","evidence":"road class","confidence":"medium"},"geometry":{"type":"LineString","coordinates":[[-2.078,52.112],[-1.999,52.105],[-1.943,52.092]]}},{"type":"Feature","id":8003,"properties":{"name":"B4632 Broadway–Winchcombe","region":"Cotswolds","rating":"yellow","reason":"Scenic Cotswold B-road with bends and village traffic; manageable for Penfold.","source":"https://www.openstreetmap.org/search?query=B4632%20Broadway%20Winchcombe","evidence":"road class/geometry","confidence":"medium"},"geometry":{"type":"LineString","coordinates":[[-1.855,52.035],[-1.894,51.988],[-1.963,51.953]]}},{"type":"Feature","id":8004,"properties":{"name":"Snowshill village lanes","region":"Cotswolds","rating":"orange","reason":"Very narrow historic village lanes with limited passing and seasonal visitor pressure. Use deliberately rather than as a sat-nav shortcut.","source":"https://www.openstreetmap.org/search?query=Snowshill","evidence":"village geometry","confidence":"medium"},"geometry":{"type":"LineString","coordinates":[[-1.861,52.007],[-1.862,52.003],[-1.865,52.000]]}},{"type":"Feature","id":8005,"properties":{"name":"A46 Bath–Stroud","region":"Cotswolds","rating":"green","reason":"Major regional corridor and a straightforward Penfold route.","source":"https://www.openstreetmap.org/search?query=A46%20Bath%20Stroud","evidence":"road class","confidence":"high"},"geometry":{"type":"LineString","coordinates":[[-2.359,51.381],[-2.203,51.581],[-2.218,51.745]]}},{"type":"Feature","id":8006,"properties":{"name":"B4060 Wotton-under-Edge–Dursley","region":"Cotswolds","rating":"yellow","reason":"Rural B-road with gradients and bends but suitable for a Transporter-sized camper.","source":"https://www.openstreetmap.org/search?query=B4060%20Dursley","evidence":"road class","confidence":"medium"},"geometry":{"type":"LineString","coordinates":[[-2.354,51.638],[-2.330,51.678],[-2.305,51.730]]}},{"type":"Feature","id":8007,"properties":{"name":"A361 Banbury–Chipping Norton","region":"Oxfordshire","rating":"green","reason":"Main regional A-road and sensible Penfold route across north Oxfordshire.","source":"https://www.openstreetmap.org/search?query=A361%20Banbury%20Chipping%20Norton","evidence":"road class","confidence":"high"},"geometry":{"type":"LineString","coordinates":[[-1.340,52.062],[-1.444,51.985],[-1.545,51.941]]}},{"type":"Feature","id":8008,"properties":{"name":"B4026 Charlbury–Chipping Norton","region":"Oxfordshire","rating":"yellow","reason":"Bendy rural B-road with narrow village sections; suitable for Penfold but slower than the A-road alternatives.","source":"https://www.openstreetmap.org/search?query=B4026%20Charlbury","evidence":"road class","confidence":"medium"},"geometry":{"type":"LineString","coordinates":[[-1.482,51.872],[-1.519,51.908],[-1.545,51.941]]}},{"type":"Feature","id":8009,"properties":{"name":"A422 Stratford–Banbury","region":"Warwickshire/Oxfordshire","rating":"green","reason":"Main cross-country A-road; straightforward for Penfold.","source":"https://www.openstreetmap.org/search?query=A422%20Stratford%20Banbury","evidence":"road class","confidence":"high"},"geometry":{"type":"LineString","coordinates":[[-1.707,52.191],[-1.516,52.123],[-1.340,52.062]]}},{"type":"Feature","id":8010,"properties":{"name":"A5 Cannock–Shrewsbury","region":"West Midlands/Shropshire","rating":"green","reason":"Strategic trunk corridor and default green for Penfold.","source":"https://www.openstreetmap.org/search?query=A5%20Shrewsbury","evidence":"road class","confidence":"high"},"geometry":{"type":"LineString","coordinates":[[-1.987,52.690],[-2.346,52.674],[-2.754,52.708]]}},{"type":"Feature","id":8011,"properties":{"name":"A458 Shrewsbury–Welshpool","region":"Shropshire/Mid Wales","rating":"green","reason":"Main east-west regional route and sensible Penfold corridor into Mid Wales.","source":"https://www.openstreetmap.org/search?query=A458%20Welshpool","evidence":"road class","confidence":"high"},"geometry":{"type":"LineString","coordinates":[[-2.754,52.708],[-3.002,52.677],[-3.147,52.659]]}},{"type":"Feature","id":8012,"properties":{"name":"Long Mynd / Burway","region":"Shropshire Hills","rating":"red","reason":"Very narrow, steep and exposed single-track hill road with difficult passing. Avoid-by-default in Penfold unless the drive itself is the objective and conditions are quiet.","source":"https://www.openstreetmap.org/search?query=The%20Burway%20Long%20Mynd","evidence":"road geometry","confidence":"high"},"geometry":{"type":"LineString","coordinates":[[-2.835,52.539],[-2.846,52.553],[-2.873,52.571]]}},{"type":"Feature","id":8013,"properties":{"name":"A49 Shrewsbury–Hereford","region":"Marches","rating":"green","reason":"Major north-south trunk-style route through the Marches; straightforward for Penfold.","source":"https://www.openstreetmap.org/search?query=A49%20Shrewsbury%20Hereford","evidence":"road class","confidence":"high"},"geometry":{"type":"LineString","coordinates":[[-2.754,52.708],[-2.714,52.350],[-2.716,52.056]]}},{"type":"Feature","id":8014,"properties":{"name":"B4368 Clun–Craven Arms","region":"Shropshire Hills","rating":"yellow","reason":"Scenic rural B-road with bends and narrow sections but generally manageable for Penfold.","source":"https://www.openstreetmap.org/search?query=B4368%20Clun","evidence":"road class/geometry","confidence":"medium"},"geometry":{"type":"LineString","coordinates":[[-3.124,52.421],[-2.952,52.413],[-2.836,52.440]]}},{"type":"Feature","id":8015,"properties":{"name":"A438 Hereford–Brecon","region":"Herefordshire/Wales","rating":"green","reason":"Main regional route and a good Penfold alternative to smaller Wye Valley lanes.","source":"https://www.openstreetmap.org/search?query=A438%20Hereford%20Brecon","evidence":"road class","confidence":"high"},"geometry":{"type":"LineString","coordinates":[[-2.716,52.056],[-3.066,52.060],[-3.389,51.947]]}},{"type":"Feature","id":8016,"properties":{"name":"A40 Gloucester–Ross-on-Wye","region":"Gloucestershire/Herefordshire","rating":"green","reason":"Strategic dual/single carriageway corridor and default green for Penfold.","source":"https://www.openstreetmap.org/search?query=A40%20Gloucester%20Ross","evidence":"road class","confidence":"high"},"geometry":{"type":"LineString","coordinates":[[-2.243,51.865],[-2.479,51.872],[-2.581,51.916]]}},{"type":"Feature","id":8017,"properties":{"name":"B4234 Lower Wye Valley","region":"Wye Valley","rating":"yellow","reason":"Scenic road with village sections, bends and tourist traffic; generally fine for Penfold.","source":"https://www.openstreetmap.org/search?query=B4234%20Wye%20Valley","evidence":"road class/geometry","confidence":"medium"},"geometry":{"type":"LineString","coordinates":[[-2.676,51.813],[-2.690,51.723],[-2.672,51.642]]}},{"type":"Feature","id":8018,"properties":{"name":"A4 Marlborough–Bath","region":"Wiltshire","rating":"green","reason":"Historic main A-road corridor; generally straightforward for Penfold.","source":"https://www.openstreetmap.org/search?query=A4%20Marlborough%20Bath","evidence":"road class","confidence":"high"},"geometry":{"type":"LineString","coordinates":[[-1.728,51.420],[-2.005,51.435],[-2.359,51.381]]}},{"type":"Feature","id":8019,"properties":{"name":"B3081 Shaftesbury–Sixpenny Handley","region":"Dorset","rating":"yellow","reason":"Rural B-road with bends and rolling gradients; suitable for Penfold.","source":"https://www.openstreetmap.org/search?query=B3081%20Shaftesbury","evidence":"road class","confidence":"medium"},"geometry":{"type":"LineString","coordinates":[[-2.198,51.006],[-2.030,50.981],[-1.965,50.953]]}},{"type":"Feature","id":8020,"properties":{"name":"Gold Hill / central Shaftesbury lanes","region":"Dorset","rating":"orange","reason":"Steep, narrow historic streets and visitor congestion make central-lane sat-nav routing unsuitable for casual campervan access.","source":"https://www.openstreetmap.org/search?query=Gold%20Hill%20Shaftesbury","evidence":"street geometry","confidence":"medium"},"geometry":{"type":"LineString","coordinates":[[-2.197,51.005],[-2.196,51.004],[-2.195,51.003]]}},{"type":"Feature","id":8021,"properties":{"name":"A35 Dorchester–Bridport","region":"Dorset","rating":"green","reason":"Main west-Dorset trunk corridor and default green for Penfold.","source":"https://www.openstreetmap.org/search?query=A35%20Dorchester%20Bridport","evidence":"road class","confidence":"high"},"geometry":{"type":"LineString","coordinates":[[-2.438,50.711],[-2.587,50.724],[-2.758,50.733]]}},{"type":"Feature","id":8022,"properties":{"name":"B3157 Jurassic Coast road","region":"Dorset","rating":"yellow","reason":"Scenic coastal B-road with bends, villages and seasonal traffic; Penfold is suitable with care.","source":"https://www.openstreetmap.org/search?query=B3157%20Dorset","evidence":"road class/visitor pressure","confidence":"medium"},"geometry":{"type":"LineString","coordinates":[[-2.758,50.733],[-2.659,50.665],[-2.455,50.649]]}},{"type":"Feature","id":8023,"properties":{"name":"Lulworth Cove approach","region":"Dorset","rating":"yellow","reason":"Main visitor approach is suitable for Penfold but can be very busy; use designated parking and avoid minor-lane diversions.","source":"https://www.openstreetmap.org/search?query=Lulworth%20Cove","evidence":"visitor approach/geometry","confidence":"medium"},"geometry":{"type":"LineString","coordinates":[[-2.246,50.671],[-2.250,50.635],[-2.249,50.619]]}},{"type":"Feature","id":8024,"properties":{"name":"A30 Salisbury–Shaftesbury","region":"Wiltshire/Dorset","rating":"green","reason":"Main regional corridor and an easy Penfold route.","source":"https://www.openstreetmap.org/search?query=A30%20Salisbury%20Shaftesbury","evidence":"road class","confidence":"high"},"geometry":{"type":"LineString","coordinates":[[-1.795,51.069],[-1.984,51.030],[-2.198,51.006]]}},{"type":"Feature","id":8025,"properties":{"name":"A272 South Downs corridor","region":"Sussex/Hampshire","rating":"green","reason":"Long established regional A-road; generally straightforward for Penfold despite bends and village sections.","source":"https://www.openstreetmap.org/search?query=A272%20South%20Downs","evidence":"road class","confidence":"high"},"geometry":{"type":"LineString","coordinates":[[-1.317,51.061],[-0.728,50.997],[-0.165,50.916]]}}]}