{"type":"FeatureCollection","features":[{"type":"Feature","properties":{"name":"Cragside Carriage Drive","region":"Northumberland","rating":"red","reason":"National Trust explicitly says motorhomes and campervans must not drive around the Carriage Drive: it is single-track and too narrow for safe passage. The published maximum width is 1.95 m, narrower than many Transporter-sized vans with mirrors.","source":"https://www.nationaltrust.org.uk/visit/north-east/cragside/useful-information-for-your-visit-at-cragside","evidence":"National Trust explicit campervan restriction","confidence":"high"},"geometry":{"type":"LineString","coordinates":[[-1.884,55.313],[-1.891,55.315],[-1.897,55.312]]}},{"type":"Feature","properties":{"name":"Branscombe village approach lanes","region":"East Devon","rating":"orange","reason":"National Trust describes the signed approach lanes as narrow and specifically says they are not suitable for large motorhomes or caravans. A Transporter-sized camper is smaller, but this remains a useful caution route rather than an ordinary easy village approach.","source":"https://www.nationaltrust.org.uk/visit/devon/branscombe/index","evidence":"National Trust road-access warning","confidence":"high"},"geometry":{"type":"LineString","coordinates":[[-3.149,50.700],[-3.136,50.695],[-3.119,50.691]]}},{"type":"Feature","properties":{"name":"Llanborth / Newborough campervan access","region":"Anglesey","rating":"yellow","reason":"National Trust says the campervan site cannot accept larger campervans or caravans because of restricted access. The reference LWB Transporter fits comfortably within the stated 4.5 m x 8 m pitch envelope, but the access limitation is worth flagging.","source":"https://www.nationaltrust.org.uk/holidays/wales/llanborth-campervan-site/guide","evidence":"National Trust campervan access restriction","confidence":"high"},"geometry":{"type":"LineString","coordinates":[[-4.360,53.163],[-4.349,53.154],[-4.344,53.148]]}},{"type":"Feature","properties":{"name":"Cloud Farm access, Lorna Doone Valley","region":"Exmoor","rating":"yellow","reason":"National Trust limits motorhomes to 6 m because of access restrictions. A Transporter LWB is below that threshold, but the restriction is evidence that the final approach is materially tighter than the surrounding road network suggests.","source":"https://www.nationaltrust.org.uk/holidays/devon/cloud-farm-campsite/guide","evidence":"National Trust vehicle-length access restriction","confidence":"high"},"geometry":{"type":"LineString","coordinates":[[-3.788,51.216],[-3.799,51.221],[-3.808,51.225]]}},{"type":"Feature","properties":{"name":"Older Hill Lane, Woolbeding","region":"South Downs","rating":"yellow","reason":"National Trust explicitly describes Older Hill Lane as a narrow single-track road. It is a useful example of a benign-looking local access road where meeting traffic can require reversing.","source":"https://www.nationaltrust.org.uk/visit/sussex/woolbeding-countryside","evidence":"National Trust access directions","confidence":"high"},"geometry":{"type":"LineString","coordinates":[[-0.788,50.995],[-0.798,50.999],[-0.807,51.004]]}},{"type":"Feature","properties":{"name":"Great Langdale final valley approach","region":"Lake District","rating":"yellow","reason":"The valley is a normal campervan destination and the National Trust accepts vehicles up to 6.5 m, so this is not an avoid route. However, the increasingly constrained final valley road deserves a caution classification, especially in busy periods.","source":"https://www.nationaltrust.org.uk/holidays/lake-district/great-langdale-campsite/guide","evidence":"National Trust campervan access guidance plus road character","confidence":"medium"},"geometry":{"type":"LineString","coordinates":[[-3.050,54.438],[-3.080,54.445],[-3.093,54.448]]}}]}