{"type":"FeatureCollection","features":[{"type":"Feature","id":11001,"properties":{"name":"Low Wray approach road","region":"Lake District","rating":"yellow","reason":"The National Trust says the road leading to Low Wray campsite is narrow in places and larger motorhomes should take care. A useful warning because it can look like an ordinary local access road on a route planner.","source":"https://www.nationaltrust.org.uk/holidays/lake-district/low-wray-campsite/guide","evidence":"National Trust access guidance","confidence":"high"},"geometry":{"type":"LineString","coordinates":[[-2.989,54.403],[-2.971,54.400],[-2.958,54.398]]}},{"type":"Feature","id":11002,"properties":{"name":"White Cliffs of Dover upper parking access","region":"Kent","rating":"orange","reason":"National Trust specifically tells motorhomes and campervans not to use level 4 parking because of a tight bend and abrupt change in level that can ground a vehicle. Use the designated motorhome parking instead.","source":"https://www.nationaltrust.org.uk/visit/kent/the-white-cliffs-of-dover/arriving-at-the-white-cliffs-of-dover","evidence":"National Trust vehicle-specific warning","confidence":"high"},"geometry":{"type":"LineString","coordinates":[[1.305,51.126],[1.314,51.128],[1.321,51.130]]}},{"type":"Feature","id":11003,"properties":{"name":"Red Bank Road, Grasmere–Langdale","region":"Lake District","rating":"red","reason":"Single-track with very tight corners. Lake District National Park explicitly says it is unsuitable for lorries or caravans; for a campervan it is a road to avoid by default when an easier route exists.","source":"https://lakedistrict.gov.uk/explore/plan-your-visit/getting-to-and-around/postcodes-for-sat-nav/","evidence":"National Park explicit unsuitable-vehicle warning","confidence":"high"},"geometry":{"type":"LineString","coordinates":[[-3.027,54.457],[-3.035,54.448],[-3.044,54.438]]}},{"type":"Feature","id":11004,"properties":{"name":"Hardknott Pass","region":"Lake District","rating":"red","reason":"One of the steepest roads in the UK, with extreme gradients, hairpins and narrow sections. The National Park specifically flags it when warning that sat-nav routes may not suit larger vehicles.","source":"https://lakedistrict.gov.uk/explore/plan-your-visit/getting-to-and-around/postcodes-for-sat-nav/","evidence":"National Park route warning","confidence":"high"},"geometry":{"type":"LineString","coordinates":[[-3.201,54.402],[-3.204,54.404],[-3.213,54.406],[-3.226,54.401]]}},{"type":"Feature","id":11005,"properties":{"name":"Wrynose Pass","region":"Lake District","rating":"red","reason":"Very steep, narrow and twisting mountain pass. Lake District National Park groups it with Hardknott and Honister when warning drivers not to rely on the shortest sat-nav route.","source":"https://lakedistrict.gov.uk/explore/plan-your-visit/getting-to-and-around/postcodes-for-sat-nav/","evidence":"National Park route warning","confidence":"high"},"geometry":{"type":"LineString","coordinates":[[-3.091,54.414],[-3.107,54.416],[-3.122,54.414],[-3.134,54.410]]}},{"type":"Feature","id":11006,"properties":{"name":"Honister Pass","region":"Lake District","rating":"orange","reason":"Very steep and narrow mountain road. The National Park explicitly flags Honister among the steepest roads in the country; manageable by smaller vans in suitable conditions but not an ordinary easy route.","source":"https://lakedistrict.gov.uk/explore/plan-your-visit/getting-to-and-around/postcodes-for-sat-nav/","evidence":"National Park route warning","confidence":"high"},"geometry":{"type":"LineString","coordinates":[[-3.197,54.537],[-3.200,54.526],[-3.198,54.515],[-3.185,54.503]]}},{"type":"Feature","id":11007,"properties":{"name":"Peak District green-lane / UCR vehicle routes","region":"Peak District","rating":"orange","reason":"Unclassified/green-lane routes can appear routable but may be rocky, rutted, narrow or subject to Traffic Regulation Orders. Peak District guidance specifically says not to use roads too narrow for your vehicle and to check the relevant highway authority.","source":"https://www.peakdistrict.gov.uk/looking-after/vehicles/vehicle-access","evidence":"National Park vehicle-access guidance","confidence":"high"},"geometry":{"type":"LineString","coordinates":[[-1.813,53.284],[-1.796,53.297],[-1.783,53.310]]}},{"type":"Feature","id":11008,"properties":{"name":"Dartmoor minor-road sat-nav routes","region":"Dartmoor","rating":"orange","reason":"Minor cross-moor lanes can look attractive as shortcuts but Dartmoor guidance warns that some roads are too narrow for motorhomes and drivers should not rely on sat-nav alone.","source":"https://www.dartmoor.gov.uk/enjoy-dartmoor/planning-your-visit/travel-information","evidence":"National Park motorhome guidance","confidence":"high"},"geometry":{"type":"LineString","coordinates":[[-3.865,50.574],[-3.895,50.594],[-3.917,50.610]]}},{"type":"Feature","id":11009,"properties":{"name":"Buttertubs Pass","region":"Yorkshire Dales","rating":"yellow","reason":"Narrow upland road with exposed sections and limited passing. It is passable for Transporter-sized campers but deserves advance awareness rather than being treated as a normal B-road-style connection.","source":"https://www.openstreetmap.org/search?query=Buttertubs%20Pass","evidence":"road geometry / established driving character","confidence":"medium"},"geometry":{"type":"LineString","coordinates":[[-2.195,54.322],[-2.208,54.333],[-2.217,54.344]]}},{"type":"Feature","id":11010,"properties":{"name":"Fleet Moss road, Hawes–Oughtershaw","region":"Yorkshire Dales","rating":"orange","reason":"High, steep, narrow moorland road with awkward bends and limited passing. It can look like a convenient cross-dales route but is substantially more demanding than the main valley roads.","source":"https://www.openstreetmap.org/search?query=Fleet%20Moss%20Yorkshire","evidence":"road geometry / community driving character","confidence":"medium"},"geometry":{"type":"LineString","coordinates":[[-2.196,54.303],[-2.214,54.278],[-2.232,54.253]]}},{"type":"Feature","id":11011,"properties":{"name":"Rosedale Chimney Bank","region":"North York Moors","rating":"red","reason":"Exceptionally steep road with sharp bends. Although paved and public, it is a classic example of a route that looks innocuous on a conventional road map but is a poor casual campervan route.","source":"https://www.openstreetmap.org/search?query=Rosedale%20Chimney%20Bank","evidence":"road gradient / geometry","confidence":"high"},"geometry":{"type":"LineString","coordinates":[[-0.886,54.346],[-0.889,54.357],[-0.894,54.365]]}},{"type":"Feature","id":11012,"properties":{"name":"Porlock Hill / A39","region":"Exmoor","rating":"orange","reason":"Unusually steep section of an otherwise ordinary-looking A-road, with tight bends and a long gradient. Exactly the sort of road where the A-road classification understates the driving challenge.","source":"https://www.openstreetmap.org/search?query=Porlock%20Hill%20A39","evidence":"road gradient / geometry","confidence":"high"},"geometry":{"type":"LineString","coordinates":[[-3.594,51.209],[-3.606,51.211],[-3.620,51.216]]}},{"type":"Feature","id":11013,"properties":{"name":"Winnats Pass","region":"Peak District","rating":"orange","reason":"Steep, narrow-sided limestone pass with bends and tourist traffic. It is a normal surfaced road but is much more demanding than its appearance on a route planner suggests.","source":"https://www.openstreetmap.org/search?query=Winnats%20Pass","evidence":"road gradient / geometry","confidence":"high"},"geometry":{"type":"LineString","coordinates":[[-1.799,53.341],[-1.813,53.344],[-1.826,53.346]]}},{"type":"Feature","id":11014,"properties":{"name":"Cat and Fiddle / A537","region":"Peak District","rating":"yellow","reason":"A-road classification can imply an easy route, but this is a high exposed moorland road with repeated bends and weather exposure. Generally suitable for a campervan but worth flagging as non-routine in poor conditions.","source":"https://www.openstreetmap.org/search?query=A537%20Cat%20and%20Fiddle","evidence":"road geometry / exposure","confidence":"medium"},"geometry":{"type":"LineString","coordinates":[[-2.057,53.252],[-2.022,53.244],[-1.999,53.237]]}},{"type":"Feature","id":11015,"properties":{"name":"Black Mountain Road / A4069","region":"Bannau Brycheiniog","rating":"yellow","reason":"Mountain A-road with tight bends, exposed sections and substantial elevation change. Suitable for a Transporter-sized camper but materially more demanding than a typical A-road.","source":"https://www.openstreetmap.org/search?query=A4069%20Black%20Mountain%20Road","evidence":"road geometry / gradient","confidence":"medium"},"geometry":{"type":"LineString","coordinates":[[-3.873,51.882],[-3.884,51.895],[-3.901,51.914],[-3.920,51.932]]}},{"type":"Feature","id":11016,"properties":{"name":"Gospel Pass","region":"Black Mountains","rating":"orange","reason":"Narrow, steep single-track mountain road with limited passing. A legitimate road but one where route-planner appearance substantially understates the difficulty for a campervan.","source":"https://www.openstreetmap.org/search?query=Gospel%20Pass%20Wales","evidence":"road geometry / established driving character","confidence":"high"},"geometry":{"type":"LineString","coordinates":[[-3.087,52.006],[-3.074,52.020],[-3.065,52.038]]}},{"type":"Feature","id":11017,"properties":{"name":"Bwlch y Groes","region":"Eryri / Mid Wales","rating":"orange","reason":"Steep, narrow mountain crossing with sharp bends. It is paved and scenic but should be approached as a deliberate mountain drive rather than an ordinary shortcut.","source":"https://www.openstreetmap.org/search?query=Bwlch%20y%20Groes","evidence":"road gradient / geometry","confidence":"high"},"geometry":{"type":"LineString","coordinates":[[-3.632,52.712],[-3.647,52.721],[-3.661,52.731]]}},{"type":"Feature","id":11018,"properties":{"name":"Applecross / Bealach na Bà","region":"Wester Ross","rating":"red","reason":"Single-track alpine-style pass with hairpins, steep gradients and limited passing. NC500 guidance consistently treats this as unsuitable for larger motorhomes; even a Transporter-sized camper should regard it as a deliberate challenging drive, not a normal route.","source":"https://www.northcoast500.com/","evidence":"touring-route guidance / road geometry","confidence":"high"},"geometry":{"type":"LineString","coordinates":[[-5.577,57.411],[-5.647,57.423],[-5.698,57.432],[-5.789,57.431]]}},{"type":"Feature","id":11019,"properties":{"name":"B869 Drumbeg coastal road","region":"Assynt","rating":"orange","reason":"Long stretches of narrow single-track road with bends, crests and constrained passing. A beautiful route but considerably more demanding than the A894 alternative and frequently highlighted in NC500 campervan guidance.","source":"https://www.northcoast500.com/","evidence":"touring-route guidance / single-track geometry","confidence":"high"},"geometry":{"type":"LineString","coordinates":[[-5.012,58.257],[-5.102,58.244],[-5.196,58.238],[-5.260,58.220]]}},{"type":"Feature","id":11020,"properties":{"name":"Quiraing road","region":"Isle of Skye","rating":"orange","reason":"Narrow single-track scenic road with steep sections, blind crests, passing places and intense visitor traffic. Technically usable by campervans but easily much harder than the map suggests at busy times.","source":"https://www.openstreetmap.org/search?query=Quiraing%20Skye","evidence":"single-track geometry / visitor pressure","confidence":"high"},"geometry":{"type":"LineString","coordinates":[[-6.291,57.610],[-6.274,57.625],[-6.258,57.640],[-6.244,57.651]]}}]}