{"type":"FeatureCollection","features":[{"type":"Feature","id":1021,"properties":{"name":"Whinlatter Pass B5292","region":"Lake District","rating":"yellow","reason":"Twisty forest pass but a normal B-road. Generally suitable for Penfold; use care for cyclists, forestry traffic and winter conditions.","source":"https://www.openstreetmap.org/search?query=Whinlatter%20Pass","evidence":"road class/geometry","confidence":"medium"},"geometry":{"type":"LineString","coordinates":[[-3.213,54.611],[-3.258,54.609],[-3.309,54.614]]}},{"type":"Feature","id":1022,"properties":{"name":"Haweswater reservoir road","region":"Lake District","rating":"yellow","reason":"Narrow dead-end reservoir road but generally manageable for Transporter-sized vehicles. Expect walkers, livestock and meeting traffic.","source":"https://www.openstreetmap.org/search?query=Haweswater","evidence":"road geometry","confidence":"medium"},"geometry":{"type":"LineString","coordinates":[[-2.770,54.512],[-2.790,54.489],[-2.806,54.463]]}},{"type":"Feature","id":1023,"properties":{"name":"Kentmere valley road","region":"Lake District","rating":"orange","reason":"Very narrow rural access with walls and hedges and few easy passing opportunities. Penfold can fit but satnav shortcuts here deserve caution.","source":"https://www.openstreetmap.org/search?query=Kentmere","evidence":"road geometry","confidence":"medium"},"geometry":{"type":"LineString","coordinates":[[-2.785,54.379],[-2.806,54.404],[-2.833,54.424]]}},{"type":"Feature","id":1024,"properties":{"name":"A590/A591 South Lakes approach","region":"Lake District","rating":"green","reason":"Primary strategic approach to the South Lakes, used by coaches and commercial traffic. Default green for Penfold.","source":"https://www.openstreetmap.org/search?query=A590%20Lake%20District","evidence":"road class","confidence":"high"},"geometry":{"type":"LineString","coordinates":[[-3.031,54.213],[-2.845,54.274],[-2.746,54.327]]}},{"type":"Feature","id":1025,"properties":{"name":"A4085 Beddgelert–Rhyd Ddu","region":"Eryri","rating":"yellow","reason":"Twisty mountain A-road with narrow sections but fundamentally suitable for a VW Transporter-sized camper.","source":"https://eryri.gov.wales/visit/plan-your-visit/campervans-and-motorhomes/","evidence":"National Park campervan guidance + road class","confidence":"medium"},"geometry":{"type":"LineString","coordinates":[[-4.128,52.978],[-4.144,53.006],[-4.135,53.047]]}},{"type":"Feature","id":1026,"properties":{"name":"B4413 Llŷn Peninsula / Aberdaron","region":"Llŷn Peninsula","rating":"yellow","reason":"Rural peninsula B-road with narrow sections and seasonal traffic. Penfold is a sensible size; avoid tiny coastal-lane diversions.","source":"https://www.openstreetmap.org/search?query=B4413%20Aberdaron","evidence":"road class/geometry","confidence":"medium"},"geometry":{"type":"LineString","coordinates":[[-4.418,52.923],[-4.593,52.865],[-4.712,52.806]]}},{"type":"Feature","id":1027,"properties":{"name":"B4391 Bala–Llangynog","region":"North/Mid Wales","rating":"yellow","reason":"Scenic cross-country B-road with bends and narrower sections but generally a practical Penfold route.","source":"https://www.openstreetmap.org/search?query=B4391%20Bala","evidence":"road class","confidence":"medium"},"geometry":{"type":"LineString","coordinates":[[-3.600,52.912],[-3.455,52.833],[-3.406,52.841]]}},{"type":"Feature","id":1028,"properties":{"name":"A483 central Wales corridor","region":"Mid Wales","rating":"green","reason":"Principal north-south road through central and eastern Wales. Default suitable for Penfold except signed or temporary restrictions.","source":"https://www.openstreetmap.org/search?query=A483%20Wales","evidence":"road class","confidence":"high"},"geometry":{"type":"LineString","coordinates":[[-3.440,52.240],[-3.315,52.516],[-3.146,52.740]]}},{"type":"Feature","id":1029,"properties":{"name":"A487 west Wales corridor","region":"West Wales","rating":"green","reason":"Primary west-Wales route linking major towns. Generally the sensible Penfold choice compared with smaller coastal alternatives.","source":"https://www.openstreetmap.org/search?query=A487%20Wales","evidence":"road class","confidence":"high"},"geometry":{"type":"LineString","coordinates":[[-4.080,52.416],[-4.335,52.237],[-4.705,52.082]]}},{"type":"Feature","id":1030,"properties":{"name":"A44 Ponterwyd–Aberystwyth","region":"Mid Wales","rating":"green","reason":"Main trunk-road approach across the Cambrian Mountains. Bendy and exposed, but built for regular through traffic and suitable for Penfold.","source":"https://www.gov.wales/a44-trunk-road-between-bwlch-nant-yr-arian-and-ponterwyd-ceredigion-temporary-prohibition-vehicles","evidence":"official trunk-road source","confidence":"high"},"geometry":{"type":"LineString","coordinates":[[-3.861,52.414],[-3.997,52.414],[-4.083,52.416]]}},{"type":"Feature","id":1031,"properties":{"name":"A87 Portree–Uig","region":"Isle of Skye","rating":"green","reason":"Main north-Skye route, regularly used by buses and commercial traffic. Default green for Penfold, with weather as the main caveat.","source":"https://www.openstreetmap.org/search?query=A87%20Uig","evidence":"road class","confidence":"high"},"geometry":{"type":"LineString","coordinates":[[-6.194,57.412],[-6.275,57.515],[-6.356,57.586]]}},{"type":"Feature","id":1032,"properties":{"name":"A82 Rannoch Moor","region":"Highlands","rating":"green","reason":"Major trunk route across exposed moorland, used by coaches and HGVs. Default green for Penfold, with wind, ice and snow as the main risks.","source":"https://www.openstreetmap.org/search?query=A82%20Rannoch%20Moor","evidence":"road class","confidence":"high"},"geometry":{"type":"LineString","coordinates":[[-4.828,56.665],[-4.715,56.566],[-4.621,56.477]]}},{"type":"Feature","id":1033,"properties":{"name":"B863 Kinlochleven loop","region":"Highlands","rating":"yellow","reason":"Scenic loch-side B-road with bends and narrower sections. Penfold is well-sized for it; expect cyclists and tourist traffic.","source":"https://www.openstreetmap.org/search?query=B863%20Kinlochleven","evidence":"road class/geometry","confidence":"medium"},"geometry":{"type":"LineString","coordinates":[[-5.104,56.682],[-5.050,56.712],[-4.961,56.713]]}},{"type":"Feature","id":1034,"properties":{"name":"Glen Lyon road","region":"Perthshire","rating":"orange","reason":"Long narrow glen road, largely single-track with limited passing. Penfold fits but reversing and patience are part of the route.","source":"https://www.openstreetmap.org/search?query=Glen%20Lyon","evidence":"road geometry","confidence":"medium"},"geometry":{"type":"LineString","coordinates":[[-4.372,56.599],[-4.478,56.604],[-4.596,56.583]]}},{"type":"Feature","id":1035,"properties":{"name":"Loch Quoich road","region":"Highlands","rating":"orange","reason":"Remote single-track road along Loch Quoich with very limited services and long reversing possibilities. Suitable only as an intentional excursion.","source":"https://www.openstreetmap.org/search?query=Loch%20Quoich","evidence":"road geometry","confidence":"medium"},"geometry":{"type":"LineString","coordinates":[[-5.200,57.067],[-5.321,57.087],[-5.442,57.104]]}},{"type":"Feature","id":1036,"properties":{"name":"A861 Corran–Acharacle","region":"West Highlands","rating":"yellow","reason":"Long scenic west-coast road with single-track sections. Penfold is a sensible campervan size; journey time and passing places matter more than dimensions.","source":"https://www.highland.gov.uk/corran-ferry/corran-ferry-fares/2","evidence":"official ferry/route context + road class","confidence":"medium"},"geometry":{"type":"LineString","coordinates":[[-5.235,56.721],[-5.472,56.722],[-5.798,56.742]]}},{"type":"Feature","id":1037,"properties":{"name":"A884 Morvern","region":"West Highlands","rating":"yellow","reason":"Remote Highland A-road with stretches of single track. Generally suitable for Penfold if you are comfortable with passing-place etiquette.","source":"https://www.highland.gov.uk/news/article/15204/highland_residents_and_visitors_reminded_to_adhere_to_speed_limits","evidence":"official Highland single-track guidance","confidence":"medium"},"geometry":{"type":"LineString","coordinates":[[-5.229,56.722],[-5.399,56.598],[-5.637,56.512]]}},{"type":"Feature","id":1038,"properties":{"name":"A849 Isle of Mull","region":"Isle of Mull","rating":"yellow","reason":"Main Mull route but much of the island network is single-track. Penfold is appropriate; slow progress and correct passing-place use are expected.","source":"https://www.highland.gov.uk/news/article/15204/highland_residents_and_visitors_reminded_to_adhere_to_speed_limits","evidence":"single-track guidance + road class","confidence":"medium"},"geometry":{"type":"LineString","coordinates":[[-5.959,56.414],[-6.090,56.480],[-6.305,56.614]]}},{"type":"Feature","id":1039,"properties":{"name":"B885 Portree–Bracadale","region":"Isle of Skye","rating":"yellow","reason":"Cross-island B-road with narrow and single-track sections. Penfold fits, but it is slower and more constrained than the A87.","source":"https://www.openstreetmap.org/search?query=B885%20Skye","evidence":"road class/geometry","confidence":"medium"},"geometry":{"type":"LineString","coordinates":[[-6.194,57.412],[-6.278,57.385],[-6.347,57.359]]}},{"type":"Feature","id":1040,"properties":{"name":"A855 Portree–Staffin","region":"Isle of Skye","rating":"yellow","reason":"Main east-Skye scenic road; narrow in places but normal territory for campervans. Quiraing deviations are assessed separately.","source":"https://www.openstreetmap.org/search?query=A855%20Staffin","evidence":"road class","confidence":"medium"},"geometry":{"type":"LineString","coordinates":[[-6.194,57.412],[-6.186,57.530],[-6.197,57.625]]}},{"type":"Feature","id":1041,"properties":{"name":"B9176 Struie Road","region":"Easter Ross","rating":"yellow","reason":"Scenic B-road shortcut with bends and elevation change, but generally suitable for Penfold. Use normal Highland rural-road caution.","source":"https://www.highland.gov.uk/news/article/15204/highland_residents_and_visitors_reminded_to_adhere_to_speed_limits","evidence":"official Highland driving guidance","confidence":"medium"},"geometry":{"type":"LineString","coordinates":[[-4.339,57.773],[-4.327,57.842],[-4.251,57.923]]}}]}