{"type":"FeatureCollection","features":[{"type":"Feature","id":3001,"properties":{"name":"A93 Cairnwell Pass","region":"Cairngorms","rating":"yellow","reason":"High mountain A-road over Glenshee. Penfold has no dimensional issue, but gradients, snow, ice and exposure justify care.","source":"https://www.openstreetmap.org/search?query=A93%20Cairnwell%20Pass","evidence":"road class/geometry","confidence":"high"},"geometry":{"type":"LineString","coordinates":[[-3.404,56.799],[-3.411,56.878],[-3.369,56.949]]}},{"type":"Feature","id":3002,"properties":{"name":"A939 Cock Bridge–Tomintoul (Lecht)","region":"Cairngorms","rating":"yellow","reason":"Steep exposed mountain A-road with winter-weather vulnerability. Normally suitable for Penfold in settled conditions.","source":"https://www.openstreetmap.org/search?query=A939%20Lecht","evidence":"road class/geometry","confidence":"high"},"geometry":{"type":"LineString","coordinates":[[-3.184,57.159],[-3.240,57.222],[-3.378,57.250]]}},{"type":"Feature","id":3003,"properties":{"name":"B974 Cairn o' Mount","region":"Aberdeenshire","rating":"yellow","reason":"Steep and exposed B-road with sharp bends. Penfold is suitable, but winter conditions and visibility can change quickly.","source":"https://www.openstreetmap.org/search?query=B974%20Cairn%20o%20Mount","evidence":"road class/geometry","confidence":"medium"},"geometry":{"type":"LineString","coordinates":[[-2.644,56.973],[-2.731,56.954],[-2.835,56.918]]}},{"type":"Feature","id":3004,"properties":{"name":"B862 Fort Augustus–Inverness east Loch Ness","region":"Highlands","rating":"yellow","reason":"Scenic east-side Loch Ness route with narrow sections and bends. More demanding than the A82 but comfortable enough for Penfold.","source":"https://www.openstreetmap.org/search?query=B862%20Loch%20Ness","evidence":"road class/geometry","confidence":"medium"},"geometry":{"type":"LineString","coordinates":[[-4.680,57.144],[-4.510,57.281],[-4.233,57.478]]}},{"type":"Feature","id":3005,"properties":{"name":"B852 Loch Ness shore road","region":"Highlands","rating":"yellow","reason":"Narrow loch-side B-road with bends and occasional constrained passing. Fine for Penfold if driven patiently.","source":"https://www.openstreetmap.org/search?query=B852%20Loch%20Ness","evidence":"road class/geometry","confidence":"medium"},"geometry":{"type":"LineString","coordinates":[[-4.355,57.330],[-4.328,57.405],[-4.267,57.457]]}},{"type":"Feature","id":3006,"properties":{"name":"B8074 Glen Orchy","region":"Argyll","rating":"yellow","reason":"Long scenic glen road with narrow and single-track-feeling sections. Penfold fits; passing and wildlife are the main considerations.","source":"https://www.openstreetmap.org/search?query=B8074%20Glen%20Orchy","evidence":"road class/geometry","confidence":"medium"},"geometry":{"type":"LineString","coordinates":[[-4.809,56.517],[-4.876,56.423],[-4.964,56.357]]}},{"type":"Feature","id":3007,"properties":{"name":"A85 Crianlarich–Oban","region":"Argyll","rating":"green","reason":"Main strategic west-coast route carrying coaches and commercial traffic. Default green for Penfold.","source":"https://www.openstreetmap.org/search?query=A85%20Oban","evidence":"road class","confidence":"high"},"geometry":{"type":"LineString","coordinates":[[-4.617,56.391],[-5.026,56.411],[-5.471,56.412]]}},{"type":"Feature","id":3008,"properties":{"name":"A828 Oban–Ballachulish","region":"Argyll","rating":"green","reason":"Main coastal A-road with good suitability for campervans. Default green for Penfold.","source":"https://www.openstreetmap.org/search?query=A828%20Ballachulish","evidence":"road class","confidence":"high"},"geometry":{"type":"LineString","coordinates":[[-5.471,56.412],[-5.304,56.560],[-5.103,56.681]]}},{"type":"Feature","id":3009,"properties":{"name":"A890 Kyle–Achnasheen","region":"Wester Ross","rating":"green","reason":"Primary route across Wester Ross and a sensible Penfold corridor, despite remote scenery and occasional narrower sections.","source":"https://www.openstreetmap.org/search?query=A890%20Achnasheen","evidence":"road class","confidence":"high"},"geometry":{"type":"LineString","coordinates":[[-5.713,57.279],[-5.421,57.482],[-5.077,57.579]]}},{"type":"Feature","id":3010,"properties":{"name":"A835 Ullapool–Ledmore","region":"Northwest Highlands","rating":"green","reason":"Main strategic route north from Ullapool, markedly easier than many coastal alternatives. Default green for Penfold.","source":"https://www.openstreetmap.org/search?query=A835%20Ledmore","evidence":"road class","confidence":"high"},"geometry":{"type":"LineString","coordinates":[[-5.160,57.896],[-5.105,58.015],[-4.987,58.154]]}},{"type":"Feature","id":3011,"properties":{"name":"B4518 Elan Valley–Llanidloes","region":"Mid Wales","rating":"yellow","reason":"Scenic cross-country B-road with bends and narrower sections. Penfold is workable; progress is slower than on trunk routes.","source":"https://www.openstreetmap.org/search?query=B4518%20Elan%20Valley","evidence":"road class/geometry","confidence":"medium"},"geometry":{"type":"LineString","coordinates":[[-3.601,52.281],[-3.508,52.373],[-3.536,52.449]]}},{"type":"Feature","id":3012,"properties":{"name":"A4061 Rhigos Mountain Road","region":"South Wales","rating":"yellow","reason":"Steep and exposed mountain A-road but built for normal through traffic. Penfold is suitable with normal mountain-road care.","source":"https://www.openstreetmap.org/search?query=A4061%20Rhigos","evidence":"road class/geometry","confidence":"high"},"geometry":{"type":"LineString","coordinates":[[-3.566,51.728],[-3.586,51.690],[-3.544,51.648]]}},{"type":"Feature","id":3013,"properties":{"name":"A4107 Afan Valley road","region":"South Wales","rating":"yellow","reason":"Bendy upland A-road with gradients but normal vehicle access. Generally suitable for Penfold.","source":"https://www.openstreetmap.org/search?query=A4107%20Afan","evidence":"road class","confidence":"medium"},"geometry":{"type":"LineString","coordinates":[[-3.780,51.634],[-3.708,51.613],[-3.650,51.592]]}},{"type":"Feature","id":3014,"properties":{"name":"B4560 Llangynidr–Beaufort","region":"Bannau Brycheiniog","rating":"yellow","reason":"Narrow and twisty upland B-road with open moorland sections. Penfold fits but is less relaxed than the nearby main A-road network.","source":"https://www.openstreetmap.org/search?query=B4560%20Llangynidr","evidence":"road class/geometry","confidence":"medium"},"geometry":{"type":"LineString","coordinates":[[-3.225,51.870],[-3.265,51.812],[-3.211,51.793]]}},{"type":"Feature","id":3015,"properties":{"name":"A487 Fishguard–Cardigan","region":"Pembrokeshire/Ceredigion","rating":"green","reason":"Principal west-coast A-road and the sensible campervan corridor between towns. Default green for Penfold.","source":"https://www.openstreetmap.org/search?query=A487%20Fishguard%20Cardigan","evidence":"road class","confidence":"high"},"geometry":{"type":"LineString","coordinates":[[-4.971,52.008],[-4.838,52.018],[-4.660,52.083]]}},{"type":"Feature","id":3016,"properties":{"name":"B4313 Gwaun Valley road","region":"Pembrokeshire","rating":"orange","reason":"Narrow rural valley road with limited passing and tight hedge-bound sections. Penfold can fit but this is not a carefree shortcut.","source":"https://www.openstreetmap.org/search?query=B4313%20Gwaun%20Valley","evidence":"road class/geometry","confidence":"medium"},"geometry":{"type":"LineString","coordinates":[[-4.971,52.008],[-4.880,51.999],[-4.800,51.982]]}},{"type":"Feature","id":3017,"properties":{"name":"A684 Wensleydale","region":"Yorkshire Dales","rating":"green","reason":"Main east-west Dales corridor, routinely used by normal commercial traffic. Default suitable for Penfold.","source":"https://www.openstreetmap.org/search?query=A684%20Wensleydale","evidence":"road class","confidence":"high"},"geometry":{"type":"LineString","coordinates":[[-2.203,54.307],[-1.999,54.304],[-1.720,54.303]]}},{"type":"Feature","id":3018,"properties":{"name":"B6255 Ribblehead–Hawes","region":"Yorkshire Dales","rating":"yellow","reason":"Open moorland B-road with bends, gradients and tourist traffic. Penfold is a sensible size and should be comfortable in normal conditions.","source":"https://www.openstreetmap.org/search?query=B6255%20Ribblehead","evidence":"road class/geometry","confidence":"medium"},"geometry":{"type":"LineString","coordinates":[[-2.363,54.210],[-2.309,54.257],[-2.203,54.307]]}},{"type":"Feature","id":3019,"properties":{"name":"B6160 Wharfedale","region":"Yorkshire Dales","rating":"yellow","reason":"Scenic valley road with narrower village sections and seasonal traffic. Suitable for Penfold with patience.","source":"https://www.openstreetmap.org/search?query=B6160%20Wharfedale","evidence":"road class/geometry","confidence":"medium"},"geometry":{"type":"LineString","coordinates":[[-1.996,54.072],[-2.033,54.139],[-2.071,54.203]]}},{"type":"Feature","id":3020,"properties":{"name":"B6270 Swaledale","region":"Yorkshire Dales","rating":"yellow","reason":"Long scenic Dales road, narrow in places but generally suitable for Transporter-sized campers. Expect cyclists and livestock.","source":"https://www.openstreetmap.org/search?query=B6270%20Swaledale","evidence":"road class/geometry","confidence":"medium"},"geometry":{"type":"LineString","coordinates":[[-2.000,54.406],[-1.858,54.386],[-1.682,54.376]]}},{"type":"Feature","id":3021,"properties":{"name":"A686 Hartside Pass","region":"North Pennines","rating":"yellow","reason":"High exposed A-road with long climbs and descents. Penfold is dimensionally fine; weather and braking discipline matter.","source":"https://www.openstreetmap.org/search?query=A686%20Hartside","evidence":"road class/geometry","confidence":"high"},"geometry":{"type":"LineString","coordinates":[[-2.276,54.796],[-2.443,54.770],[-2.596,54.699]]}},{"type":"Feature","id":3022,"properties":{"name":"B6277 Alston–Middleton-in-Teesdale","region":"North Pennines","rating":"yellow","reason":"Remote upland B-road with bends and exposed sections. Penfold is suitable, though winter conditions can be severe.","source":"https://www.openstreetmap.org/search?query=B6277%20Alston","evidence":"road class/geometry","confidence":"medium"},"geometry":{"type":"LineString","coordinates":[[-2.441,54.812],[-2.251,54.706],[-2.082,54.626]]}},{"type":"Feature","id":3023,"properties":{"name":"B3135 Mendip Hills","region":"Somerset","rating":"yellow","reason":"Scenic Mendip B-road with bends and occasional constrained sections. Penfold should be comfortable with normal care.","source":"https://www.openstreetmap.org/search?query=B3135%20Mendip","evidence":"road class/geometry","confidence":"medium"},"geometry":{"type":"LineString","coordinates":[[-2.774,51.279],[-2.651,51.281],[-2.553,51.262]]}},{"type":"Feature","id":3024,"properties":{"name":"B3357 Tavistock–Princetown","region":"Dartmoor","rating":"yellow","reason":"Moorland B-road with bends, livestock and exposed sections. Generally a much better Penfold choice than tiny Dartmoor lanes.","source":"https://www.dartmoor.gov.uk/enjoy-dartmoor/planning-your-visit/camping-and-motorhomes","evidence":"official Dartmoor motorhome guidance + road class","confidence":"high"},"geometry":{"type":"LineString","coordinates":[[-4.144,50.549],[-4.037,50.542],[-3.990,50.543]]}},{"type":"Feature","id":3025,"properties":{"name":"B3212 Princetown–Yelverton","region":"Dartmoor","rating":"green","reason":"Main signed Dartmoor through-road and generally suitable for campervans. Prefer this to unsigned moorland shortcuts.","source":"https://www.dartmoor.gov.uk/enjoy-dartmoor/planning-your-visit/camping-and-motorhomes","evidence":"official Dartmoor motorhome guidance + road class","confidence":"high"},"geometry":{"type":"LineString","coordinates":[[-3.990,50.543],[-4.052,50.520],[-4.083,50.492]]}},{"type":"Feature","id":3026,"properties":{"name":"B3223 Simonsbath–Exford","region":"Exmoor","rating":"yellow","reason":"Rural Exmoor B-road with bends, gradients and livestock. Suitable for Penfold, though slower than trunk routes.","source":"https://www.openstreetmap.org/search?query=B3223%20Exmoor","evidence":"road class/geometry","confidence":"medium"},"geometry":{"type":"LineString","coordinates":[[-3.738,51.140],[-3.665,51.135],[-3.636,51.133]]}},{"type":"Feature","id":3027,"properties":{"name":"Porlock Toll Road","region":"Exmoor","rating":"green","reason":"Privately managed alternative to the steep A39 Porlock Hill, commonly used as the lower-stress route for larger vehicles and campervans.","source":"https://www.openstreetmap.org/search?query=Porlock%20Toll%20Road","evidence":"route alternative/geometry","confidence":"medium"},"geometry":{"type":"LineString","coordinates":[[-3.598,51.208],[-3.640,51.220],[-3.695,51.222]]}},{"type":"Feature","id":3028,"properties":{"name":"Watersmeet road (A39 east of Lynmouth)","region":"Exmoor","rating":"yellow","reason":"Steep wooded A-road with bends and visitor traffic. Penfold is suitable but descents need care.","source":"https://www.openstreetmap.org/search?query=A39%20Watersmeet","evidence":"road class/geometry","confidence":"medium"},"geometry":{"type":"LineString","coordinates":[[-3.833,51.229],[-3.780,51.214],[-3.719,51.196]]}},{"type":"Feature","id":3029,"properties":{"name":"Boscastle main approach A39/B3263","region":"North Cornwall","rating":"yellow","reason":"Main signed approach is workable for Penfold, but surrounding village and coastal lanes can be substantially tighter.","source":"https://www.openstreetmap.org/search?query=Boscastle%20B3263","evidence":"road class/geometry","confidence":"medium"},"geometry":{"type":"LineString","coordinates":[[-4.665,50.684],[-4.692,50.688],[-4.696,50.684]]}},{"type":"Feature","id":3030,"properties":{"name":"Tintagel main approach B3263","region":"North Cornwall","rating":"yellow","reason":"Main signed approach is suitable for Penfold; avoid sat-nav diversions into narrow coastal lanes around the village.","source":"https://www.openstreetmap.org/search?query=Tintagel%20B3263","evidence":"road class/geometry","confidence":"medium"},"geometry":{"type":"LineString","coordinates":[[-4.665,50.684],[-4.731,50.671],[-4.753,50.664]]}},{"type":"Feature","id":3031,"properties":{"name":"Robin Hood's Bay visitor approach","region":"North York Moors coast","rating":"orange","reason":"Steep historic village access with very constrained lower streets. Penfold should use designated visitor parking rather than attempting the old village centre.","source":"https://www.openstreetmap.org/search?query=Robin%20Hoods%20Bay","evidence":"village geometry/visitor access","confidence":"medium"},"geometry":{"type":"LineString","coordinates":[[-0.546,54.435],[-0.535,54.433],[-0.532,54.430]]}},{"type":"Feature","id":3032,"properties":{"name":"Staithes visitor approach","region":"North York Moors coast","rating":"orange","reason":"Historic fishing-village streets are extremely constrained. Use the designated upper-village parking rather than driving toward the harbour.","source":"https://www.openstreetmap.org/search?query=Staithes","evidence":"village geometry/visitor access","confidence":"medium"},"geometry":{"type":"LineString","coordinates":[[-0.797,54.560],[-0.791,54.558],[-0.790,54.555]]}}]}