{"type":"FeatureCollection","features":[{"type":"Feature","properties":{"name":"Wasdale Head approach","region":"Lake District","rating":"yellow","reason":"Very narrow and tortuous in places, single-track sections and a narrow bridge. National Trust accepts campervans/motorhomes only under 6.5 m on this access; a Transporter-sized camper is below that threshold but care is warranted.","source":"https://www.nationaltrust.org.uk/holidays/lake-district/wasdale-campsite/guide","evidence":"official-site-guidance","confidence":"high"},"geometry":{"type":"LineString","coordinates":[[-3.379,54.416],[-3.320,54.456],[-3.274,54.466]]}},{"type":"Feature","properties":{"name":"Low Wray campsite approach","region":"Lake District","rating":"yellow","reason":"National Trust states the road leading to Low Wray is narrow in places and larger motorhomes should take care. Useful warning for an otherwise innocuous-looking local road.","source":"https://www.nationaltrust.org.uk/holidays/lake-district/low-wray-campsite/guide","evidence":"official-site-guidance","confidence":"high"},"geometry":{"type":"LineString","coordinates":[[-3.003,54.387],[-2.981,54.402],[-2.962,54.409]]}},{"type":"Feature","properties":{"name":"Highertown Farm / Lansallos approach","region":"South Cornwall","rating":"yellow","reason":"Narrow single-track lanes with passing places. National Trust limits campervans/motorhomes to 6 m because of the approach; a Transporter LWB fits but this is exactly the sort of sat-nav lane worth flagging.","source":"https://www.nationaltrust.org.uk/holidays/cornwall/highertown-farm-campsite/guide","evidence":"official-site-guidance","confidence":"high"},"geometry":{"type":"LineString","coordinates":[[-4.562,50.359],[-4.574,50.347],[-4.579,50.337]]}},{"type":"Feature","properties":{"name":"Abbott Street to Kingston Lacy motorhome site","region":"Dorset","rating":"yellow","reason":"Abbott Street narrows to a single-track country lane with intermittent passing areas before the motorhome-site entrance. Suitable but unexpectedly constrained.","source":"https://www.nationaltrust.org.uk/holidays/dorset/kingston-lacy-motorhome-site/guide","evidence":"official-site-guidance","confidence":"high"},"geometry":{"type":"LineString","coordinates":[[-2.005,50.817],[-2.023,50.813],[-2.035,50.808]]}},{"type":"Feature","properties":{"name":"White Cliffs of Dover level 4 parking access","region":"Kent","rating":"red","reason":"National Trust explicitly tells motorhomes and campervans not to use this access because a tight bend and abrupt level change can ground the vehicle.","source":"https://www.nationaltrust.org.uk/visit/kent/the-white-cliffs-of-dover/arriving-at-the-white-cliffs-of-dover","evidence":"official-explicit-vehicle-warning","confidence":"high"},"geometry":{"type":"LineString","coordinates":[[1.317,51.127],[1.326,51.132],[1.333,51.134]]}},{"type":"Feature","properties":{"name":"Peasholm Drive constrained section","region":"Scarborough, North Yorkshire","rating":"yellow","reason":"Council consultation evidence repeatedly describes this residential road as narrow with parked cars reducing usable width and larger motorhomes causing obstruction. Flagged as a local congestion/access caution rather than a hard restriction.","source":"https://edemocracy.northyorks.gov.uk/documents/s64182/Appendix%20A2%20-%20Motorhome%20responses%20-%20data%20redacted.pdf","evidence":"local-authority-consultation-community-evidence","confidence":"medium"},"geometry":{"type":"LineString","coordinates":[[-0.414,54.287],[-0.407,54.291],[-0.401,54.293]]}}]}