{"type":"FeatureCollection","features":[{"type":"Feature","id":10001,"properties":{"name":"Red Bank Road, Grasmere–Elterwater","region":"Lake District","rating":"red","reason":"Single-track with very tight corners. The National Park specifically warns that it is unsuitable for lorries or caravans; a road to treat as a deliberate choice in a campervan, not a sat-nav shortcut.","source":"https://lakedistrict.gov.uk/explore/plan-your-visit/getting-to-and-around/postcodes-for-sat-nav/","evidence":"official National Park guidance","confidence":"high"},"geometry":{"type":"LineString","coordinates":[[-3.024,54.457],[-3.039,54.449],[-3.055,54.439]]}},{"type":"Feature","id":10002,"properties":{"name":"Honister Pass","region":"Lake District","rating":"orange","reason":"One of the steepest roads highlighted by the National Park. Narrow mountain road with gradients and limited room; viable for a compact camper but should not look like an ordinary through-road on the map.","source":"https://lakedistrict.gov.uk/explore/plan-your-visit/getting-to-and-around/postcodes-for-sat-nav/","evidence":"official National Park guidance","confidence":"high"},"geometry":{"type":"LineString","coordinates":[[-3.154,54.548],[-3.199,54.511],[-3.214,54.500]]}},{"type":"Feature","id":10003,"properties":{"name":"Hardknott Pass","region":"Lake District","rating":"red","reason":"Extremely steep, narrow and twisting mountain pass. The National Park highlights it among the steepest roads in the UK; not a normal campervan transit route.","source":"https://lakedistrict.gov.uk/explore/plan-your-visit/getting-to-and-around/postcodes-for-sat-nav/","evidence":"official National Park guidance","confidence":"high"},"geometry":{"type":"LineString","coordinates":[[-3.204,54.399],[-3.205,54.402],[-3.190,54.407]]}},{"type":"Feature","id":10004,"properties":{"name":"Wrynose Pass","region":"Lake District","rating":"red","reason":"Very steep, narrow mountain pass and explicitly highlighted by the National Park as one of the UK's steepest. Treat as an intentional challenging drive rather than routine routing.","source":"https://lakedistrict.gov.uk/explore/plan-your-visit/getting-to-and-around/postcodes-for-sat-nav/","evidence":"official National Park guidance","confidence":"high"},"geometry":{"type":"LineString","coordinates":[[-3.090,54.417],[-3.115,54.414],[-3.145,54.413]]}},{"type":"Feature","id":10005,"properties":{"name":"Askrigg–Gunnerside moor road","region":"Yorkshire Dales","rating":"orange","reason":"Minor cross-valley moor road reported by experienced motorhome users as one to avoid in larger motorhomes, despite nearby Dales routes generally being manageable.","source":"https://www.motorhomefun.co.uk/forum/threads/yorkshire-dales-roads.181973/","evidence":"community motorhome experience","confidence":"medium"},"geometry":{"type":"LineString","coordinates":[[-2.079,54.314],[-2.044,54.345],[-2.078,54.376]]}},{"type":"Feature","id":10006,"properties":{"name":"Askrigg–Reeth moor route","region":"Yorkshire Dales","rating":"orange","reason":"High minor road between valleys; community motorhome reports specifically distinguish these roads north of Askrigg as less suitable than the main Dales valley roads.","source":"https://www.motorhomefun.co.uk/forum/threads/yorkshire-dales-roads.181973/","evidence":"community motorhome experience","confidence":"medium"},"geometry":{"type":"LineString","coordinates":[[-2.079,54.314],[-1.991,54.350],[-1.944,54.388]]}},{"type":"Feature","id":10007,"properties":{"name":"A684 western Dales blind-bend section","region":"Yorkshire Dales","rating":"yellow","reason":"An A-road that can look easier on a map than it feels: motorhome drivers report narrow sections and numerous blind bends. Keep as caution rather than default-green road-class logic.","source":"https://www.motorhomefun.co.uk/forum/threads/yorkshire-dales-roads.181973/","evidence":"community motorhome experience","confidence":"medium"},"geometry":{"type":"LineString","coordinates":[[-2.359,54.323],[-2.269,54.307],[-2.200,54.304]]}},{"type":"Feature","id":10008,"properties":{"name":"Fleet Moss / Oughtershaw road","region":"Yorkshire Dales","rating":"orange","reason":"Steep high-level pass between Wensleydale and Langstrothdale. Campervan guidance describes it as manageable but specifically calls out the steep gradient; deserves warning rather than appearing as an ordinary minor road.","source":"https://www.heathsmotorhomehire.com/destinations/yorkshire-dales","evidence":"campervan driving guidance","confidence":"medium"},"geometry":{"type":"LineString","coordinates":[[-2.196,54.301],[-2.207,54.255],[-2.200,54.222]]}},{"type":"Feature","id":10009,"properties":{"name":"Buttertubs Pass","region":"Yorkshire Dales","rating":"yellow","reason":"Narrow in places with passing places. Campervan guidance considers it manageable, but it is a pass where traffic, mirrors and meeting vehicles matter; yellow better represents it than an avoid rating.","source":"https://www.heathsmotorhomehire.com/destinations/yorkshire-dales","evidence":"campervan driving guidance","confidence":"medium"},"geometry":{"type":"LineString","coordinates":[[-2.196,54.303],[-2.191,54.337],[-2.173,54.367]]}},{"type":"Feature","id":10010,"properties":{"name":"Ashburton–River Dart Country Park–Holne approach","region":"Dartmoor","rating":"orange","reason":"Dartmoor warns that some roads are too narrow for motorhomes and not to trust sat-nav. Motorhome users specifically report narrow roads and bridges on this approach from Ashburton.","source":"https://www.dartmoor.gov.uk/enjoy-dartmoor/planning-your-visit/travel-information","evidence":"official National Park guidance plus community experience","confidence":"high"},"geometry":{"type":"LineString","coordinates":[[-3.755,50.516],[-3.804,50.522],[-3.831,50.514],[-3.837,50.510]]}},{"type":"Feature","id":10011,"properties":{"name":"Widecombe–Haytor moor road","region":"Dartmoor","rating":"yellow","reason":"Scenic exposed moor road with narrow sections. Dartmoor's official motorhome guidance warns that some roads are unsuitable by width/length and advises using its route guide rather than sat-nav.","source":"https://www.dartmoor.gov.uk/enjoy-dartmoor/planning-your-visit/travel-information","evidence":"official National Park motorhome guidance","confidence":"medium"},"geometry":{"type":"LineString","coordinates":[[-3.811,50.576],[-3.765,50.578],[-3.755,50.581]]}},{"type":"Feature","id":10012,"properties":{"name":"Castle Drogo final approach","region":"Dartmoor/Devon","rating":"yellow","reason":"National Trust describes the approach lanes as narrow with tight corners. Their formal size warning applies to vehicles much larger than a Transporter-sized camper, so this is caution rather than avoidance.","source":"https://www.nationaltrust.org.uk/visit/devon/castle-drogo","evidence":"official destination access guidance","confidence":"high"},"geometry":{"type":"LineString","coordinates":[[-3.810,50.705],[-3.800,50.699],[-3.807,50.696]]}},{"type":"Feature","id":10013,"properties":{"name":"Cambrian Mountains minor-road detours","region":"Mid Wales","rating":"yellow","reason":"The Cambrian Way's smaller roads are remote, often single-track with passing places, and take substantially longer than sat-nav estimates. Compact van conversions are specifically favoured over large motorhomes.","source":"https://wales.org/explore-the-wales-way-by-campervan/","evidence":"current Wales campervan route guidance","confidence":"medium"},"geometry":{"type":"LineString","coordinates":[[-3.605,52.398],[-3.684,52.338],[-3.704,52.270]]}},{"type":"Feature","id":10014,"properties":{"name":"Llŷn Peninsula minor coastal lanes","region":"North Wales","rating":"yellow","reason":"The main Wales Way is campervan-friendly, but guidance specifically flags smaller Llŷn detours as narrow/steep and less suitable for larger vehicles. Marked to discourage blind sat-nav shortcuts.","source":"https://wales.org/holiday-ideas/exploring-the-wales-way/","evidence":"current Wales route guidance","confidence":"medium"},"geometry":{"type":"LineString","coordinates":[[-4.507,52.922],[-4.602,52.884],[-4.701,52.824]]}},{"type":"Feature","id":10015,"properties":{"name":"Fairbourne–Tywyn coastal road narrow section","region":"Gwynedd","rating":"yellow","reason":"Motorhome reports describe one notably narrow cottage section with passing opportunities at either end. Manageable, but worth flagging because the overall road can appear unremarkable on a map.","source":"https://www.motorhomefun.co.uk/forum/threads/fairbourne-wales.304259/","evidence":"multiple community motorhome reports","confidence":"medium"},"geometry":{"type":"LineString","coordinates":[[-4.057,52.697],[-4.084,52.660],[-4.088,52.617]]}},{"type":"Feature","id":10016,"properties":{"name":"Penycoedcae southern rural approach","region":"South Wales","rating":"orange","reason":"Local campervan/motorhome site guidance explicitly warns visitors not to approach from the south because the route becomes narrow and larger vehicles may struggle. Useful example of a sat-nav route that looks innocuous.","source":"https://themahojos.com/aire/","evidence":"local motorhome access guidance","confidence":"medium"},"geometry":{"type":"LineString","coordinates":[[-3.349,51.584],[-3.345,51.599],[-3.341,51.611]]}},{"type":"Feature","id":10017,"properties":{"name":"Dartmoor minor-road sat-nav risk zone – eastern moor","region":"Dartmoor","rating":"orange","reason":"Dartmoor National Park explicitly says some roads are too narrow for motorhomes and tells drivers not to rely on satellite navigation. This corridor marks a representative minor-road zone where route choice needs checking rather than assuming road-class suitability.","source":"https://www.dartmoor.gov.uk/enjoy-dartmoor/planning-your-visit/travel-information","evidence":"official National Park motorhome guidance","confidence":"medium"},"geometry":{"type":"LineString","coordinates":[[-3.720,50.594],[-3.766,50.612],[-3.810,50.625]]}},{"type":"Feature","id":10018,"properties":{"name":"Dartmoor minor-road sat-nav risk zone – central moor","region":"Dartmoor","rating":"orange","reason":"Official guidance warns of narrow roads plus width/length restrictions and specifically advises motorhomes not to rely on sat-nav. Retained as a warning corridor rather than colouring the normal through-routes.","source":"https://www.dartmoor.gov.uk/__data/assets/pdf_file/0027/172656/CoachDriversGuidance-A2-2020-Online.pdf","evidence":"official National Park motorhome route guide","confidence":"high"},"geometry":{"type":"LineString","coordinates":[[-3.906,50.553],[-3.920,50.580],[-3.900,50.610]]}}]}