{"type":"FeatureCollection","features":[{"type":"Feature","properties":{"name":"Raiders' Road Forest Drive / Stroan Loch approach","region":"Dumfries and Galloway","rating":"orange","reason":"Forestry and Land Scotland describes a long narrow forest road with a tight turn into the car park and says the site is not suitable for caravans or large motorhomes. Useful warning for campervans despite no height barrier.","source":"https://forestryandland.gov.scot/visit/destinations/raiders-road-forest-drive/visitor-information","evidence":"Forestry and Land Scotland official visitor guidance","confidence":"high"},"geometry":{"type":"LineString","coordinates":[[-4.195,55.006],[-4.135,55.020],[-4.075,55.035]]}},{"type":"Feature","properties":{"name":"Lower Cheviot forest access","region":"Scottish Borders","rating":"orange","reason":"Official guidance says the forest road has a steep entrance, is narrow with passing places and rough in places; Lower Cheviot is not suitable for large vehicles or caravans.","source":"https://forestryandland.gov.scot/visit/destinations/cheviots/visitor-information","evidence":"Forestry and Land Scotland official visitor guidance","confidence":"high"},"geometry":{"type":"LineString","coordinates":[[-2.720,55.390],[-2.690,55.405],[-2.660,55.420]]}},{"type":"Feature","properties":{"name":"Upper Cheviot forest access","region":"Scottish Borders","rating":"yellow","reason":"Single-track forest access with passing places. Official guidance allows motorhomes but the road character merits care and checking current forestry closures.","source":"https://forestryandland.gov.scot/visit/destinations/cheviots/visitor-information","evidence":"Forestry and Land Scotland official visitor guidance","confidence":"high"},"geometry":{"type":"LineString","coordinates":[[-2.720,55.390],[-2.685,55.415],[-2.650,55.435]]}},{"type":"Feature","properties":{"name":"Wauchope Forest access from B6357","region":"Scottish Borders","rating":"yellow","reason":"Narrow access road with passing places; Forestry and Land Scotland says the site is not suitable for caravans or large motorhomes. Transporter-sized campers should still proceed cautiously.","source":"https://forestryandland.gov.scot/visit/destinations/wauchope/visitor-information","evidence":"Forestry and Land Scotland official visitor guidance","confidence":"high"},"geometry":{"type":"LineString","coordinates":[[-2.760,55.330],[-2.735,55.320],[-2.710,55.310]]}},{"type":"Feature","properties":{"name":"Low Wray campsite approach","region":"Lake District","rating":"yellow","reason":"National Trust says the road leading to Low Wray is narrow in places and larger motorhomes should take care. A useful warning where mapping can make the approach appear routine.","source":"https://www.nationaltrust.org.uk/holidays/lake-district/low-wray-campsite/guide","evidence":"National Trust official campsite guidance","confidence":"high"},"geometry":{"type":"LineString","coordinates":[[-2.980,54.390],[-2.965,54.400],[-2.950,54.410]]}},{"type":"Feature","properties":{"name":"Highertown Farm / Lansallos approach","region":"Cornwall","rating":"yellow","reason":"National Trust imposes a 6 m maximum vehicle length because of narrow lanes to the campsite. A 5.304 m LWB reference camper is within the limit but the access constraint is worth highlighting.","source":"https://www.nationaltrust.org.uk/holidays/cornwall/highertown-farm-campsite/guide","evidence":"National Trust official campsite guidance","confidence":"high"},"geometry":{"type":"LineString","coordinates":[[-4.610,50.355],[-4.595,50.350],[-4.580,50.345]]}},{"type":"Feature","properties":{"name":"Llanborth / Newborough campervan access","region":"Anglesey","rating":"yellow","reason":"National Trust states the campervan site cannot accept larger vehicles or caravans because of restricted access. The pitches accommodate vehicles in an 8 m space, so this is caution rather than an automatic exclusion for a Transporter-sized camper.","source":"https://www.nationaltrust.org.uk/holidays/wales/llanborth-campervan-site/guide","evidence":"National Trust official campervan-site guidance","confidence":"high"},"geometry":{"type":"LineString","coordinates":[[-4.360,53.155],[-4.345,53.150],[-4.330,53.145]]}}]}